{
"type": "FeatureCollection",
"crs": { "type": "name", "properties": { "name": "urn:ogc:def:crs:OGC:1.3:CRS84" } },
                                                                                                                                  
"features": [
{ "type": "Feature", "properties": { "service": "FIRE STATION", "zip": 94015, "dlat": 37.702253, "name": "DALY CITY FIRE STATION 91", "address": "151 LAKE MERCED BLVD\nDALY CITY, CA 94015", "dlon": -122.485401, "id": 19 }, "geometry": { "type": "Point", "coordinates": [ -122.485400561327083, 37.702252985722396, 0.0 ] } },
{ "type": "Feature", "properties": { "service": "COUNTY", "zip": 94063, "dlat": 37.488356, "name": "SAN MATEO COUNTY SHERIFFS OFFICE", "address": "400 COUNTY CENTER\nREDWOOD CITY, CA 94063", "dlon": -122.230190, "id": 856 }, "geometry": { "type": "Point", "coordinates": [ -122.230189886461901, 37.488356290572696, 0.0 ] } },
{ "type": "Feature", "properties": { "service": "COUNTY", "zip": 94063, "dlat": 37.487702, "name": "SAN MATEO COUNTY SHERIFFS OFFICE MAGUIRE CORRECTIONAL FACILITY", "address": "300 BRADFORD STREET\nREDWOOD CITY, CA 94063", "dlon": -122.232270, "id": 857 }, "geometry": { "type": "Point", "coordinates": [ -122.232270420205921, 37.487702360986965, 0.0 ] } },
{ "type": "Feature", "properties": { "service": "COUNTY", "zip": 94063, "dlat": 37.488356, "name": "SAN MATEO COUNTY SHERIFFS OFFICE LIVESCAN", "address": "400 COUNTY CENTER\nREDWOOD CITY, CA 94063", "dlon": -122.230190, "id": 858 }, "geometry": { "type": "Point", "coordinates": [ -122.230189886461901, 37.488356290572696, 0.0 ] } },
{ "type": "Feature", "properties": { "service": "COUNTY", "zip": 94063, "dlat": 37.488356, "name": "SAN MATEO COUNTY SHERIFFS OFFICE MOSS BEACH SUBSTATION LIVESCAN", "address": "400 COUNTY CENTER\nREDWOOD CITY, CA 94063", "dlon": -122.230190, "id": 859 }, "geometry": { "type": "Point", "coordinates": [ -122.230189886461901, 37.488356290572696, 0.0 ] } },
{ "type": "Feature", "properties": { "service": "COUNTY", "zip": 94063, "dlat": 37.488356, "name": "SAN MATEO COUNTY SHERIFFS OFFICE RECORDS BUREAU", "address": "400 COUNTY CENTER\nREDWOOD CITY, CA 94063", "dlon": -122.230190, "id": 860 }, "geometry": { "type": "Point", "coordinates": [ -122.230189886461901, 37.488356290572696, 0.0 ] } },
{ "type": "Feature", "properties": { "service": "FIRE STATION", "zip": 94005, "dlat": 37.687045, "name": "BRISBANE FIRE STATION 81", "address": "3445 BAYSHORE BLVD\nBRISBANE, CA 94005", "dlon": -122.400244, "id": 980 }, "geometry": { "type": "Point", "coordinates": [ -122.400243758372653, 37.687045450206938, 0.0 ] } },
{ "type": "Feature", "properties": { "service": "FIRE STATION", "zip": 94015, "dlat": 37.702253, "name": "DALY CITY FIRE STATION 91", "address": "151 LAKE MERCED BLVD\nDALY CITY, CA 94015", "dlon": -122.485401, "id": 985 }, "geometry": { "type": "Point", "coordinates": [ -122.485400561327083, 37.702252985722396, 0.0 ] } },
{ "type": "Feature", "properties": { "service": "FIRE STATION", "zip": 94014, "dlat": 37.706486, "name": "DALY CITY FIRE STATION 92", "address": "18 BEPLER STREET\nDALY CITY, CA 94014", "dlon": -122.461439, "id": 987 }, "geometry": { "type": "Point", "coordinates": [ -122.461439481859458, 37.706485917130003, 0.0 ] } },
{ "type": "Feature", "properties": { "service": "FIRE STATION", "zip": 94014, "dlat": 37.702682, "name": "DALY CITY FIRE STATION 93", "address": "464 MARTIN ST\nDALY CITY, CA 94014", "dlon": -122.420823, "id": 988 }, "geometry": { "type": "Point", "coordinates": [ -122.4208234258803, 37.702681571024812, 0.0 ] } },
{ "type": "Feature", "properties": { "service": "FIRE STATION", "zip": 94015, "dlat": 37.679338, "name": "DALY CITY FIRE STATION 95", "address": "191 EDGEMONT DR\nDALY CITY, CA 94015", "dlon": -122.484231, "id": 991 }, "geometry": { "type": "Point", "coordinates": [ -122.484231442688952, 37.679338260415818, 0.0 ] } },
{ "type": "Feature", "properties": { "service": "FIRE STATION", "zip": 94066, "dlat": 37.624800, "name": "SAN BRUNO FIRE STATION 51", "address": "555 EL\nCAMINO REAL SAN BRUNO, CA 94066", "dlon": -122.414141, "id": 994 }, "geometry": { "type": "Point", "coordinates": [ -122.414141331360696, 37.624800409970597, 0.0 ] } },
{ "type": "Feature", "properties": { "service": "FIRE STATION", "zip": 94014, "dlat": 37.686730, "name": "COLMA FIRE STATION  85", "address": "50 REINER ST\nCOLMA, CA 94014", "dlon": -122.466672, "id": 1000 }, "geometry": { "type": "Point", "coordinates": [ -122.46667231420075, 37.686729803913067, 0.0 ] } },
{ "type": "Feature", "properties": { "service": "FIRE STATION", "zip": 94080, "dlat": 37.649292, "name": "SOUTH SAN FRANCISCO FIRE STATION 62", "address": "249 HARBOR WAY SOUTH\nSAN FRANCISCO, CA 94080", "dlon": -122.400091, "id": 1001 }, "geometry": { "type": "Point", "coordinates": [ -122.400090873627676, 37.649291911416924, 0.0 ] } },
{ "type": "Feature", "properties": { "service": "FIRE STATION", "zip": 94044, "dlat": 37.646045, "name": "PACIFICA FIRE PACIFIC MANOR STATION 71", "address": "616 EDGEMAR BLVD\nPACIFICA, CA 94044", "dlon": -122.490014, "id": 1003 }, "geometry": { "type": "Point", "coordinates": [ -122.490014083337371, 37.646045358891115, 0.0 ] } },
{ "type": "Feature", "properties": { "service": "FIRE STATION", "zip": 94066, "dlat": 37.625360, "name": "CALIFORNIA DEPT. OF FORESTRY FIRE STATION 17", "address": "322 PAUL SCANNELL DR\nBELMONT, CA 94066", "dlon": -122.427320, "id": 1010 }, "geometry": { "type": "Point", "coordinates": [ -122.427319999817996, 37.625359999964189, 0.0 ] } },
{ "type": "Feature", "properties": { "service": "FIRE STATION", "zip": 94015, "dlat": 37.662863, "name": "DALY CITY FIRE STATION 94", "address": "444 GELLERT BLVD\nDALY CITY, CA 94015", "dlon": -122.469312, "id": 1016 }, "geometry": { "type": "Point", "coordinates": [ -122.469311690222867, 37.662862680839055, 0.0 ] } },
{ "type": "Feature", "properties": { "service": "POLICE DEPARTMENT", "zip": 94025, "dlat": 37.454354, "name": "MENLO PARK POLICE DEPARTMENT", "address": "701 LAUREL ST MENLO PARK\nCA 94025", "dlon": -122.177397, "id": 1024 }, "geometry": { "type": "Point", "coordinates": [ -122.177396771341222, 37.454354246908991, 0.0 ] } },
{ "type": "Feature", "properties": { "service": "POLICE DEPARTMENT", "zip": 94303, "dlat": 37.473061, "name": "EAST PALO ALTO POLICE DEPARTMENT", "address": "141 DEMETER ST EAST\nPALO ALTO, CA 94303", "dlon": -122.134188, "id": 1028 }, "geometry": { "type": "Point", "coordinates": [ -122.134188329224514, 37.473060766555307, 0.0 ] } },
{ "type": "Feature", "properties": { "service": "POLICE DEPARTMENT", "zip": 94027, "dlat": 37.463546, "name": "ATHERTON POLICE DEPARTMENT", "address": "83 ASHFIELD RD\nATHERTON, CA 94027", "dlon": -122.197339, "id": 1030 }, "geometry": { "type": "Point", "coordinates": [ -122.19733872212197, 37.4635459394853, 0.0 ] } },
{ "type": "Feature", "properties": { "service": "FIRE STATION", "zip": 94021, "dlat": 37.280212, "name": "SAN MATEO COUNTY FIRE DEPARTMENT LOMA MAR STA 55", "address": "9992 PESCADERO CREEK RD\nLOMA MAR UNINC, CA 94021", "dlon": -122.285447, "id": 1289 }, "geometry": { "type": "Point", "coordinates": [ -122.285446973720511, 37.280211920891432, 0.0 ] } },
{ "type": "Feature", "properties": { "service": "POLICE DEPARTMENT", "zip": 94010, "dlat": 37.577436, "name": "HILLSBOROUGH POLICE DEPARTMENT", "address": "1600 FLORIBUNDA AVE\nHILLSBOROUGH, CA 94010", "dlon": -122.355907, "id": 1301 }, "geometry": { "type": "Point", "coordinates": [ -122.355907182328167, 37.577436081275835, 0.0 ] } },
{ "type": "Feature", "properties": { "service": "POLICE DEPARTMENT", "zip": 94005, "dlat": 37.686360, "name": "BRISBANE POLICE DEPARTMENT", "address": "50 PARK PL\nBRISBANE, CA 94005", "dlon": -122.402481, "id": 1311 }, "geometry": { "type": "Point", "coordinates": [ -122.402481479231767, 37.686360431780813, 0.0 ] } },
{ "type": "Feature", "properties": { "service": "POLICE DEPARTMENT", "zip": 94044, "dlat": 37.613957, "name": "PACIFICA POLICE DEPARTMENT", "address": "2075 COAST HWY\nPACIFICA, CA 94044", "dlon": -122.486790, "id": 1312 }, "geometry": { "type": "Point", "coordinates": [ -122.486789745863433, 37.613956889185324, 0.0 ] } },
{ "type": "Feature", "properties": { "service": "POLICE DEPARTMENT", "zip": 94015, "dlat": 37.691065, "name": "DALY CITY POLICE DEPARTMENT", "address": "333 90TH ST\nDALY CITY, CA 94015", "dlon": -122.473332, "id": 1313 }, "geometry": { "type": "Point", "coordinates": [ -122.473331659693827, 37.691065419677898, 0.0 ] } },
{ "type": "Feature", "properties": { "service": "POLICE DEPARTMENT", "zip": 94066, "dlat": 37.639157, "name": "SAN BRUNO POLICE DEPARTMENT", "address": "1177 HUNTINGTON AVE\nSAN BRUNO, CA 94066", "dlon": -122.416868, "id": 1314 }, "geometry": { "type": "Point", "coordinates": [ -122.41686818736288, 37.639156925428367, 0.0 ] } },
{ "type": "Feature", "properties": { "service": "POLICE DEPARTMENT", "zip": 94030, "dlat": 37.603067, "name": "MILLBRAE POLICE DEPARTMENT", "address": "581 MAGNOLIA AVE\nMILLBRAE, CA 94030", "dlon": -122.396134, "id": 1315 }, "geometry": { "type": "Point", "coordinates": [ -122.396133856698725, 37.603066759110902, 0.0 ] } },
{ "type": "Feature", "properties": { "service": "POLICE DEPARTMENT", "zip": 94010, "dlat": 37.595387, "name": "BURLINGAME POLICE DEPARTMENT", "address": "1111 TROUSDALE DR\nBURLINGAME, CA 94010", "dlon": -122.382203, "id": 1316 }, "geometry": { "type": "Point", "coordinates": [ -122.382203358464892, 37.595386548980684, 0.0 ] } },
{ "type": "Feature", "properties": { "service": "POLICE DEPARTMENT", "zip": 94403, "dlat": 37.543812, "name": "SAN MATEO POLICE DEPARTMENT", "address": "200 FRANKLIN PKWY\nSAN MATEO, CA 94403", "dlon": -122.291163, "id": 1319 }, "geometry": { "type": "Point", "coordinates": [ -122.291163317528643, 37.543812160349155, 0.0 ] } },
{ "type": "Feature", "properties": { "service": "POLICE DEPARTMENT", "zip": 94404, "dlat": 37.559701, "name": "FOSTER CITY POLICE DEPARTMENT", "address": "1030 E HILLSDALE BLVD\nFOSTER CITY, CA 94404", "dlon": -122.270310, "id": 1320 }, "geometry": { "type": "Point", "coordinates": [ -122.270309711579387, 37.559701450858029, 0.0 ] } },
{ "type": "Feature", "properties": { "service": "FIRE STATION", "zip": 94404, "dlat": 37.559636, "name": "FOSTER CITY FIRE DEPARTMENT STATION 28", "address": "1040 E HILLSDALE BLVD\nFOSTER CITY, CA 94404", "dlon": -122.270323, "id": 1322 }, "geometry": { "type": "Point", "coordinates": [ -122.270322672717995, 37.559636425328819, 0.0 ] } },
{ "type": "Feature", "properties": { "service": "POLICE DEPARTMENT", "zip": 94002, "dlat": 37.518491, "name": "BELMONT POLICE DEPARTMENT", "address": "1 TWIN PINES LANE\nBELMONT, CA 94002", "dlon": -122.277641, "id": 1326 }, "geometry": { "type": "Point", "coordinates": [ -122.277641311380364, 37.518490823487298, 0.0 ] } },
{ "type": "Feature", "properties": { "service": "POLICE DEPARTMENT", "zip": 94063, "dlat": 37.493583, "name": "REDWOOD CITY POLICE DEPARTMENT", "address": "1301 MAPLE ST\nREDWOOD CITY, CA 94063", "dlon": -122.219507, "id": 1044 }, "geometry": { "type": "Point", "coordinates": [ -122.219507010144241, 37.493583295263932, 0.0 ] } },
{ "type": "Feature", "properties": { "service": "POLICE DEPARTMENT", "zip": 94080, "dlat": 37.655812, "name": "SOUTH SAN FRANCISCO POLICE DEPT.", "address": "33 ARROYO DR SOUTH\nSAN FRANCISCO, CA 94080", "dlon": -122.436936, "id": 1049 }, "geometry": { "type": "Point", "coordinates": [ -122.436936097168086, 37.65581199612933, 0.0 ] } },
{ "type": "Feature", "properties": { "service": "FIRE STATION", "zip": 94010, "dlat": 37.583273, "name": "BURLINGAME FIRE STATION 34", "address": "799 CALIFORNIA DR\nBURLINGAME, CA 94010", "dlon": -122.353569, "id": 1061 }, "geometry": { "type": "Point", "coordinates": [ -122.353568945051961, 37.583272681246001, 0.0 ] } },
{ "type": "Feature", "properties": { "service": "FIRE STATION", "zip": 94066, "dlat": 37.624165, "name": "SAN BRUNO FIRE STATION 52", "address": "1999 EARL AVE\nSAN BRUNO, CA 94066", "dlon": -122.446226, "id": 1080 }, "geometry": { "type": "Point", "coordinates": [ -122.446226093730729, 37.624164853918273, 0.0 ] } },
{ "type": "Feature", "properties": { "service": "FIRE STATION", "zip": 94044, "dlat": 37.586249, "name": "PACIFICA FIRE LINDA MAR STATION 72", "address": "1100 LINDA MAR BLVD\nPACIFICA, CA 94044", "dlon": -122.491264, "id": 1081 }, "geometry": { "type": "Point", "coordinates": [ -122.491264140958094, 37.586249437162962, 0.0 ] } },
{ "type": "Feature", "properties": { "service": "FIRE STATION", "zip": 94010, "dlat": 37.555259, "name": "HILLSBOROUGH FIRE STATION 33", "address": "835 CHATEAU DR\nHILLSBOROUGH, CA 94010", "dlon": -122.378057, "id": 1088 }, "geometry": { "type": "Point", "coordinates": [ -122.378057483909799, 37.5552588000333, 0.0 ] } },
{ "type": "Feature", "properties": { "service": "FIRE STATION", "zip": 94030, "dlat": 37.593516, "name": "MILLBRAE FIRE STATION 38", "address": "785 CRESTVIEW DR\nMILLBRAE, CA 94030", "dlon": -122.415271, "id": 1094 }, "geometry": { "type": "Point", "coordinates": [ -122.415271429482232, 37.593515959159731, 0.0 ] } },
{ "type": "Feature", "properties": { "service": "FIRE STATION", "zip": 94010, "dlat": 37.591133, "name": "BURLINGAME FIRE STATION 36", "address": "1399 ROLLINS RD\nBURLINGAME, CA 94010", "dlon": -122.367032, "id": 1095 }, "geometry": { "type": "Point", "coordinates": [ -122.367031795830599, 37.591132755782098, 0.0 ] } },
{ "type": "Feature", "properties": { "service": "POLICE DEPARTMENT", "zip": 94070, "dlat": 37.504375, "name": "SAN CARLOS POLICE DEPARTMENT", "address": "600 ELM ST\nSAN CARLOS, CA 94070", "dlon": -122.262180, "id": 1099 }, "geometry": { "type": "Point", "coordinates": [ -122.262179840434499, 37.504375159615506, 0.0 ] } },
{ "type": "Feature", "properties": { "service": "FIRE STATION", "zip": 94010, "dlat": 37.560349, "name": "HILLSBOROUGH FIRE STATION 32", "address": "330 ASCOT ROAD\nHILLSBOROUGH, CA 94010", "dlon": -122.346123, "id": 1112 }, "geometry": { "type": "Point", "coordinates": [ -122.34612255864937, 37.560348962719161, 0.0 ] } },
{ "type": "Feature", "properties": { "service": "FIRE STATION", "zip": 94402, "dlat": 37.548883, "name": "SAN MATEO FIRE STATION 25", "address": "545 BARNESON AVE\nSAN MATEO, CA 94402", "dlon": -122.324431, "id": 1129 }, "geometry": { "type": "Point", "coordinates": [ -122.32443091130267, 37.548882606845552, 0.0 ] } },
{ "type": "Feature", "properties": { "service": "FIRE STATION", "zip": 94010, "dlat": 37.579037, "name": "BURLINGAME FIRE STATION 35", "address": "2832 HILLSIDE DR\nBURLINGAME, CA 94010", "dlon": -122.383256, "id": 1139 }, "geometry": { "type": "Point", "coordinates": [ -122.383255565239153, 37.579036874487997, 0.0 ] } },
{ "type": "Feature", "properties": { "service": "FIRE STATION", "zip": 94401, "dlat": 37.569427, "name": "SAN MATEO FIRE STATION 24", "address": "319 S HUMBOLDT ST\nSAN MATEO, CA 94401", "dlon": -122.315998, "id": 1145 }, "geometry": { "type": "Point", "coordinates": [ -122.31599822293812, 37.569427004379364, 0.0 ] } },
{ "type": "Feature", "properties": { "service": "FIRE STATION", "zip": 94401, "dlat": 37.566302, "name": "SAN MATEO FIRE STATION 21", "address": "120 S ELLSWORTH\nSAN MATEO, CA 94401", "dlon": -122.324575, "id": 1148 }, "geometry": { "type": "Point", "coordinates": [ -122.324574802827328, 37.566302474553083, 0.0 ] } },
{ "type": "Feature", "properties": { "service": "FIRE STATION", "zip": 94070, "dlat": 37.507604, "name": "SOUTH COUNTY FIRE AUTHORITY STATION 13", "address": "525 LAUREL ST\nSAN CARLOS, CA 94070", "dlon": -122.262432, "id": 1152 }, "geometry": { "type": "Point", "coordinates": [ -122.262431650602707, 37.507603725700676, 0.0 ] } },
{ "type": "Feature", "properties": { "service": "FIRE STATION", "zip": 94018, "dlat": 37.501968, "name": "HALF MOON BAY FIRE PROTECTION DISTRICT EL GRANADA STATION 41", "address": "531 OBISPO AVE\nEL GRANADA UNINC, CA 94018", "dlon": -122.469810, "id": 1153 }, "geometry": { "type": "Point", "coordinates": [ -122.46980999963165, 37.501967622907614, 0.0 ] } },
{ "type": "Feature", "properties": { "service": "FIRE STATION", "zip": 94402, "dlat": 37.522586, "name": "SAN MATEO FIRE STATION 27", "address": "1801 DE ANZA BLVD\nSAN MATEO, CA 94402", "dlon": -122.333343, "id": 1157 }, "geometry": { "type": "Point", "coordinates": [ -122.333343192613029, 37.522586430708827, 0.0 ] } },
{ "type": "Feature", "properties": { "service": "FIRE STATION", "zip": 94002, "dlat": 37.523045, "name": "SOUTH COUNTY FIRE AUTHORITY STATION 14", "address": "911 GRANADA ST\nBELMONT, CA 94002", "dlon": -122.273619, "id": 1158 }, "geometry": { "type": "Point", "coordinates": [ -122.273619216647205, 37.52304508494376, 0.0 ] } },
{ "type": "Feature", "properties": { "service": "FIRE STATION", "zip": 94403, "dlat": 37.542165, "name": "SAN MATEO FIRE STATION 23", "address": "31 27TH AVE\nSAN MATEO, CA 94403", "dlon": -122.304628, "id": 1162 }, "geometry": { "type": "Point", "coordinates": [ -122.304627840217449, 37.542164671286685, 0.0 ] } },
{ "type": "Feature", "properties": { "service": "FIRE STATION", "zip": 94065, "dlat": 37.534278, "name": "REDWOOD CITY FIRE STATION 20", "address": "680 REDWOOD SHORES PKWY\nREDWOOD CITY, CA 94065", "dlon": -122.239931, "id": 1165 }, "geometry": { "type": "Point", "coordinates": [ -122.239930613429635, 37.534277617089742, 0.0 ] } },
{ "type": "Feature", "properties": { "service": "FIRE STATION", "zip": 94063, "dlat": 37.484752, "name": "REDWOOD CITY FIRE STATION 11", "address": "1091 2ND AVE\nREDWOOD CITY, CA 94063", "dlon": -122.200314, "id": 1169 }, "geometry": { "type": "Point", "coordinates": [ -122.200314095120874, 37.48475186122338, 0.0 ] } },
{ "type": "Feature", "properties": { "service": "FIRE STATION", "zip": 94080, "dlat": 37.651944, "name": "SOUTH SAN FRANCISCO FIRE STATION 61", "address": "480 CANAL ST SOUTH\nSAN FRANCISCO, CA 94080", "dlon": -122.419139, "id": 1170 }, "geometry": { "type": "Point", "coordinates": [ -122.419139453769859, 37.651943630613928, 0.0 ] } },
{ "type": "Feature", "properties": { "service": "FIRE STATION", "zip": 94038, "dlat": 37.531771, "name": "HALF MOON BAY FIRE PROTECTION DISTRICT MOSS BEACH STATION 44", "address": "501 STETSON ST MOSS BEACH\nUNINC, CA 94038", "dlon": -122.515901, "id": 1175 }, "geometry": { "type": "Point", "coordinates": [ -122.515900612035892, 37.531770938895185, 0.0 ] } },
{ "type": "Feature", "properties": { "service": "FIRE STATION", "zip": 94070, "dlat": 37.489276, "name": "SOUTH COUNTY FIRE AUTHORITY STATION 16", "address": "1280 ALAMEDA\nSAN CARLOS, CA 94070", "dlon": -122.263403, "id": 1183 }, "geometry": { "type": "Point", "coordinates": [ -122.263402918394377, 37.489275542743542, 0.0 ] } },
{ "type": "Feature", "properties": { "service": "FIRE STATION", "zip": 94063, "dlat": 37.487704, "name": "REDWOOD CITY FIRE STATION 9", "address": "755 MARSHALL ST\nREDWOOD CITY, CA 94063", "dlon": -122.226736, "id": 1184 }, "geometry": { "type": "Point", "coordinates": [ -122.226735681697903, 37.487704447240077, 0.0 ] } },
{ "type": "Feature", "properties": { "service": "FIRE STATION", "zip": 94402, "dlat": 37.512820, "name": "SOUTH COUNTY FIRE AUTHORITY STATION 15", "address": "2701 CIPRIANI BLVD\nBELMONT, CA 94402", "dlon": -122.303908, "id": 1200 }, "geometry": { "type": "Point", "coordinates": [ -122.303908382594045, 37.512819793470612, 0.0 ] } },
{ "type": "Feature", "properties": { "service": "FIRE STATION", "zip": 94025, "dlat": 37.456055, "name": "MENLO PARK FIRE PROTECTION DISTRICT STATION 1", "address": "300 MIDDLEFIELD RD MENLO PARK\nCA 94025", "dlon": -122.166951, "id": 1212 }, "geometry": { "type": "Point", "coordinates": [ -122.166950630751899, 37.456054586981224, 0.0 ] } },
{ "type": "Feature", "properties": { "service": "FIRE STATION", "zip": 94019, "dlat": 37.451198, "name": "HALF MOON BAY FIRE PROTECTION DISTRICT HQ STATION 40", "address": "1191 MAIN ST\nHALF MOON BAY, CA 94019", "dlon": -122.429346, "id": 1214 }, "geometry": { "type": "Point", "coordinates": [ -122.42934581924078, 37.45119824802299, 0.0 ] } },
{ "type": "Feature", "properties": { "service": "FIRE STATION", "zip": 94303, "dlat": 37.468411, "name": "MENLO PARK FIRE PROTECTION DISTRICT STATION 2", "address": "2290 UNIVERSITY AVE EAST\nPALO ALTO, CA 94303", "dlon": -122.141338, "id": 1232 }, "geometry": { "type": "Point", "coordinates": [ -122.14133793935747, 37.468411271663797, 0.0 ] } },
{ "type": "Feature", "properties": { "service": "FIRE STATION", "zip": 94062, "dlat": 37.465129, "name": "REDWOOD CITY FIRE STATION 12", "address": "3700 JEFFERSON AVE\nREDWOOD CITY, CA 94062", "dlon": -122.253969, "id": 1235 }, "geometry": { "type": "Point", "coordinates": [ -122.253969030307019, 37.46512874625688, 0.0 ] } },
{ "type": "Feature", "properties": { "service": "FIRE STATION", "zip": 94403, "dlat": 37.549541, "name": "SAN MATEO FIRE STATION 26", "address": "1500 MARINA CT\nSAN MATEO, CA 94403", "dlon": -122.288089, "id": 1330 }, "geometry": { "type": "Point", "coordinates": [ -122.288089121530206, 37.549540957485874, 0.0 ] } },
{ "type": "Feature", "properties": { "service": "FIRE STATION", "zip": 94080, "dlat": 37.655812, "name": "SOUTH SAN FRANCISCO FIRE STATION 63", "address": "33 ARROYO DR SOUTH\nSAN FRANCISCO, CA 94080", "dlon": -122.436936, "id": 1370 }, "geometry": { "type": "Point", "coordinates": [ -122.436936097168086, 37.65581199612933, 0.0 ] } },
{ "type": "Feature", "properties": { "service": "FIRE STATION", "zip": 94080, "dlat": 37.669680, "name": "SOUTH SAN FRANCISCO FIRE STATION 65", "address": "1151 S SAN FRANCISCO DR SOUTH\nSAN FRANCISCO, CA 94080", "dlon": -122.417915, "id": 1371 }, "geometry": { "type": "Point", "coordinates": [ -122.417915436248393, 37.669679541821154, 0.0 ] } },
{ "type": "Feature", "properties": { "service": "FIRE STATION", "zip": 94080, "dlat": 37.645434, "name": "SOUTH SAN FRANCISCO FIRE STATION 64", "address": "2350 GALWAY DR SOUTH\nSAN FRANCISCO, CA 94080", "dlon": -122.456020, "id": 1380 }, "geometry": { "type": "Point", "coordinates": [ -122.456019710629846, 37.645433819911204, 0.0 ] } },
{ "type": "Feature", "properties": { "service": "FIRE STATION", "zip": 94062, "dlat": 37.457406, "name": "WOODSIDE FIRE PROTECTION DISTRICT STATION 19", "address": "4091 JEFFERSON AVE\nREDWOOD CITY, CA 94062", "dlon": -122.267417, "id": 1381 }, "geometry": { "type": "Point", "coordinates": [ -122.267416897258556, 37.457406121358339, 0.0 ] } },
{ "type": "Feature", "properties": { "service": "FIRE STATION", "zip": 94030, "dlat": 37.603067, "name": "MILLBRAE FIRE STATION 37", "address": "511 MAGNOLIA AVE\nMILLBRAE, CA 94030", "dlon": -122.396134, "id": 1382 }, "geometry": { "type": "Point", "coordinates": [ -122.396133856698725, 37.603066759110902, 0.0 ] } },
{ "type": "Feature", "properties": { "service": "POLICE DEPARTMENT", "zip": 94019, "dlat": 37.464017, "name": "HALF MOON BAY POLICE DEPARTMENT", "address": "537 KELLY AVE\nHALF MOON BAY, CA 94019", "dlon": -122.432901, "id": 1383 }, "geometry": { "type": "Point", "coordinates": [ -122.432901415468933, 37.464017350616835, 0.0 ] } },
{ "type": "Feature", "properties": { "service": "FIRE STATION", "zip": 94025, "dlat": 37.479887, "name": "MENLO PARK FIRE STATION 77", "address": "1467 CHILCO ST MENLO PARK\nCA 94025", "dlon": -122.161645, "id": 1391 }, "geometry": { "type": "Point", "coordinates": [ -122.161644630779051, 37.479886620757668, 0.0 ] } },
{ "type": "Feature", "properties": { "service": "FIRE STATION", "zip": 94027, "dlat": 37.462350, "name": "MENLO PARK FIRE PROTECTION DISTRICT STATION 3", "address": "32 ALMENDRAL AVE\nATHERTON, CA 94027", "dlon": -122.206278, "id": 1240 }, "geometry": { "type": "Point", "coordinates": [ -122.20627798309323, 37.462349841186324, 0.0 ] } },
{ "type": "Feature", "properties": { "service": "FIRE STATION", "zip": 94062, "dlat": 37.435811, "name": "KINGS MOUNTAIN VOLUNTEER FIRE BRIGADE STATION 56", "address": "13889 SKYLINE BLVD\nWOODSIDE, CA 94062", "dlon": -122.320816, "id": 1241 }, "geometry": { "type": "Point", "coordinates": [ -122.32081563674484, 37.435810848101653, 0.0 ] } },
{ "type": "Feature", "properties": { "service": "FIRE STATION", "zip": 94025, "dlat": 37.434201, "name": "MENLO PARK FIRE PROTECTION DISTRICT STATION 4", "address": "3322 ALAMEDA DE LAS PULGAS MENLO PARK\nCA 94025", "dlon": -122.206188, "id": 1242 }, "geometry": { "type": "Point", "coordinates": [ -122.206188050890262, 37.434201061669228, 0.0 ] } },
{ "type": "Feature", "properties": { "service": "FIRE STATION", "zip": 94062, "dlat": 37.386949, "name": "CALIFORNIA DEPT OF FORESTRY SKYLONDA FIRE STATION 58", "address": "17290 SKYLINE BLVD\nSKY LONDA UNINC, CA 94062", "dlon": -122.265250, "id": 1245 }, "geometry": { "type": "Point", "coordinates": [ -122.265249657845843, 37.386948608397027, 0.0 ] } },
{ "type": "Feature", "properties": { "service": "FIRE STATION", "zip": 94028, "dlat": 37.372490, "name": "WOODSIDE FIRE PROTECTION DISTRICT STATION 8", "address": "135 PORTOLA RD PORTOLA VALLEY\nCA 94028", "dlon": -122.209246, "id": 1247 }, "geometry": { "type": "Point", "coordinates": [ -122.209245745789929, 37.372489584018638, 0.0 ] } },
{ "type": "Feature", "properties": { "service": "FIRE STATION", "zip": 94020, "dlat": 37.320115, "name": "SAN MATEO COUNTY FIRE  LA HONDA FIRE STATION 57", "address": "8945 LA HONDA RD LA\nHONDA UNINC, CA 94020", "dlon": -122.274372, "id": 1249 }, "geometry": { "type": "Point", "coordinates": [ -122.27437190620951, 37.320115121034306, 0.0 ] } },
{ "type": "Feature", "properties": { "service": "FIRE STATION", "zip": 94060, "dlat": 37.251932, "name": "CALIFORNIA DEPT. OF FORESTRY PESCADERO FIRE STATION 59", "address": "1200 PESCADERO RD\nPESCADERO UNINC, CA 94060", "dlon": -122.402733, "id": 1251 }, "geometry": { "type": "Point", "coordinates": [ -122.402733480421958, 37.251932341330495, 0.0 ] } },
{ "type": "Feature", "properties": { "service": "FIRE STATION", "zip": 94062, "dlat": 37.428976, "name": "WOODSIDE FIRE PROTECTION DISTRICT HEADQUARTERS STATION 7", "address": "3111 WOODSIDE RD\nWOODSIDE, CA 94062", "dlon": -122.256469, "id": 1255 }, "geometry": { "type": "Point", "coordinates": [ -122.256469145548465, 37.428976000678972, 0.0 ] } },
{ "type": "Feature", "properties": { "service": "FIRE STATION", "zip": 94025, "dlat": 37.453087, "name": "MENLO PARK FIRE PROTECTION DISTRICT STATION 6", "address": "700 OAK GROVE AVE MENLO PARK\nCA 94025", "dlon": -122.185432, "id": 1262 }, "geometry": { "type": "Point", "coordinates": [ -122.185431698454067, 37.453086824284526, 0.0 ] } },
{ "type": "Feature", "properties": { "service": "FIRE STATION", "zip": 94062, "dlat": 37.472674, "name": "SAN MATEO COUNTY FIRE STATION 18", "address": "300 EDMONDS RD EMERALD LAKE HILLS\nUNINC, CA 94062", "dlon": -122.286156, "id": 1263 }, "geometry": { "type": "Point", "coordinates": [ -122.286155765735657, 37.472674058082703, 0.0 ] } },
{ "type": "Feature", "properties": { "service": "FIRE STATION", "zip": 94062, "dlat": 37.474689, "name": "REDWOOD CITY FIRE STATION 10", "address": "2190 JEFFERSON AVE\nREDWOOD CITY, CA 94062", "dlon": -122.239292, "id": 1265 }, "geometry": { "type": "Point", "coordinates": [ -122.239292094788823, 37.474688539428314, 0.0 ] } },
{ "type": "Feature", "properties": { "service": "FIRE STATION", "zip": 94025, "dlat": 37.474527, "name": "MENLO PARK FIRE PROTECTION DISTRICT STATION 5", "address": "4101 FAIR OAKS AVE MENLO PARK\nCA 94025", "dlon": -122.191988, "id": 1266 }, "geometry": { "type": "Point", "coordinates": [ -122.191987756047638, 37.474526661463017, 0.0 ] } }
]
}
