{
"type": "FeatureCollection",
"crs": { "type": "name", "properties": { "name": "urn:ogc:def:crs:OGC:1.3:CRS84" } },
                                                                                                                                  
"features": [
{ "type": "Feature", "properties": { "zip": 94010, "address": "400 Uplands Dr.\nHILLSBOROUGH, CA 94010", "dlon": -122.336447, "id": 1, "name": "CRYSTAL SPRINGS UPLANDS HIGH SCHOOL", "type": "HIGH SCHOOL", "dlat": 37.557765 }, "geometry": { "type": "Point", "coordinates": [ -122.336446540976155, 37.557765046087681, 0.0 ] } },
{ "type": "Feature", "properties": { "zip": 94402, "address": "900 Alameda de Las Pulgas\nSAN MATEO, CA 94402", "dlon": -122.329092, "id": 2, "name": "ARAGON HIGH SCHOOL", "type": "HIGH SCHOOL", "dlat": 37.551795 }, "geometry": { "type": "Point", "coordinates": [ -122.329092187356977, 37.551795343193028, 0.0 ] } },
{ "type": "Feature", "properties": { "zip": 94403, "address": "1001 Bermuda Dr.\nSAN MATEO, CA 94403", "dlon": -122.299490, "id": 3, "name": "FIESTA GARDENS INTERNATIONAL ELEMENTARY SCHOOL", "type": "ELEMENTARY SCHOOL", "dlat": 37.551243 }, "geometry": { "type": "Point", "coordinates": [ -122.299490383786761, 37.551242912104676, 0.0 ] } },
{ "type": "Feature", "properties": { "zip": 94010, "address": "376 Barbara Way\nHILLSBOROUGH, CA 94010", "dlon": -122.368024, "id": 4, "name": "WEST HILLSBOROUGH ELEMENTARY SCHOOL", "type": "ELEMENTARY SCHOOL", "dlat": 37.549293 }, "geometry": { "type": "Point", "coordinates": [ -122.368023750635956, 37.549293424654159, 0.0 ] } },
{ "type": "Feature", "properties": { "zip": 94402, "address": "425 Barneson Ave.\nSAN MATEO, CA 94402", "dlon": -122.322472, "id": 5, "name": "BOREL MIDDLE SCHOOL", "type": "MIDDLE SCHOOL", "dlat": 37.550212 }, "geometry": { "type": "Point", "coordinates": [ -122.322472454417607, 37.550212077478783, 0.0 ] } },
{ "type": "Feature", "properties": { "zip": 94037, "address": "1100 Le Conte Ave\nMONTARA 94037", "dlon": -122.508239, "id": 6, "name": "FARALLONE VIEW ELEMENTARY SCHOOL", "type": "ELEMENTARY SCHOOL", "dlat": 37.543901 }, "geometry": { "type": "Point", "coordinates": [ -122.508238779367844, 37.543900905156967, 0.0 ] } },
{ "type": "Feature", "properties": { "zip": 94404, "address": "461 Beach Park Blvd.\nFOSTER CITY, CA 94404", "dlon": -122.273256, "id": 7, "name": "FOSTER CITY ELEMENTARY SCHOOL", "type": "ELEMENTARY SCHOOL", "dlat": 37.545452 }, "geometry": { "type": "Point", "coordinates": [ -122.273255544953159, 37.54545228157928, 0.0 ] } },
{ "type": "Feature", "properties": { "zip": 94403, "address": "451 W 20th Ave\nSAN MATEO, CA 94403", "dlon": -122.317459, "id": 8, "name": "JUNIPERO SERRA HIGH SCHOOL", "type": "HIGH SCHOOL", "dlat": 37.546348 }, "geometry": { "type": "Point", "coordinates": [ -122.317458571439673, 37.54634819651509, 0.0 ] } },
{ "type": "Feature", "properties": { "zip": 94010, "address": "801 Howard Ave.\nBURLINGAME, CA 94010", "dlon": -122.340293, "id": 9, "name": "WASHINGTON ELEMENTARY SCHOOL", "type": "ELEMENTARY SCHOOL", "dlat": 37.580948 }, "geometry": { "type": "Point", "coordinates": [ -122.34029296442769, 37.580948346637534, 0.0 ] } },
{ "type": "Feature", "properties": { "zip": 94401, "address": "506 North Delaware St.\nSAN MATEO, CA 94401", "dlon": -122.330192, "id": 10, "name": "SAN MATEO HIGH SCHOOL", "type": "HIGH SCHOOL", "dlat": 37.576469 }, "geometry": { "type": "Point", "coordinates": [ -122.330192099862202, 37.576468588476331, 0.0 ] } },
{ "type": "Feature", "properties": { "zip": 94066, "address": "1801 Niles Ave.\nSAN BRUNO, CA 94066", "dlon": -122.419887, "id": 11, "name": "PARKSIDE INTERMEDIATE SCHOOL", "type": "7-8 SCHOOL", "dlat": 37.616279 }, "geometry": { "type": "Point", "coordinates": [ -122.419886745686128, 37.616278740613168, 0.0 ] } },
{ "type": "Feature", "properties": { "zip": 94010, "address": "1 Mangini Way\nBURLINGAME, CA 94010", "dlon": -122.346756, "id": 12, "name": "BURLINGAME HIGH SCHOOL", "type": "HIGH SCHOOL", "dlat": 37.582110 }, "geometry": { "type": "Point", "coordinates": [ -122.346755600888514, 37.582109937391223, 0.0 ] } },
{ "type": "Feature", "properties": { "zip": 94015, "address": "1255 Southgate Ave.\nDALY CITY, CA 94015", "dlon": -122.486222, "id": 13, "name": "FERNANDO RIVERA INTERMEDIATE SCHOOL", "type": "INTERMEDIATE SCHOOL", "dlat": 37.676480 }, "geometry": { "type": "Point", "coordinates": [ -122.486222195546489, 37.676479500607961, 0.0 ] } },
{ "type": "Feature", "properties": { "zip": 94015, "address": "1200 Skyline Dr.\nDALY CITY, CA 94015", "dlon": -122.486025, "id": 14, "name": "FRANKLIN DELANO ROOSEVELT ELEMENTARY SCHOOL", "type": "ELEMENTARY SCHOOL", "dlat": 37.661887 }, "geometry": { "type": "Point", "coordinates": [ -122.486024593133465, 37.661886986118887, 0.0 ] } },
{ "type": "Feature", "properties": { "zip": 94015, "address": "725 Southgate Ave.\nDALY CITY, CA 94015", "dlon": -122.490798, "id": 15, "name": "MARJORIE H. TOBIAS ELEMENTARY SCHOOL", "type": "ELEMENTARY SCHOOL", "dlat": 37.690993 }, "geometry": { "type": "Point", "coordinates": [ -122.490797856972662, 37.690992713174005, 0.0 ] } },
{ "type": "Feature", "properties": { "zip": 94014, "address": "115 First Ave.\nDALY CITY, CA 94014", "dlon": -122.464256, "id": 16, "name": "THORNTON HIGH SCHOOL", "type": "HIGH SCHOOL", "dlat": 37.691367 }, "geometry": { "type": "Point", "coordinates": [ -122.464255834736065, 37.691367361717724, 0.0 ] } },
{ "type": "Feature", "properties": { "zip": 94014, "address": "550 East Market St.\nDALY CITY, CA 94014", "dlon": -122.459594, "id": 17, "name": "THOMAS R. POLLICITA MIDDLE SCHOOL", "type": "MIDDLE SCHOOL", "dlat": 37.690632 }, "geometry": { "type": "Point", "coordinates": [ -122.459593789515566, 37.690631832058365, 0.0 ] } },
{ "type": "Feature", "properties": { "zip": 94014, "address": "444 E Market St\nDALY CITY, CA 94014", "dlon": -122.460549, "id": 18, "name": "COLMA ELEMENTARY SCHOOL", "type": "ELEMENTARY SCHOOL", "dlat": 37.690202 }, "geometry": { "type": "Point", "coordinates": [ -122.460548771426133, 37.690201870480742, 0.0 ] } },
{ "type": "Feature", "properties": { "zip": 94080, "address": "2570 Westborough Blvd.\nSOUTH SAN FRANCISCO, CA 94080", "dlon": -122.460764, "id": 19, "name": "WESTBOROUGH MIDDLE SCHOOL", "type": "MIDDLE SCHOOL", "dlat": 37.643285 }, "geometry": { "type": "Point", "coordinates": [ -122.460764376975789, 37.643285392305586, 0.0 ] } },
{ "type": "Feature", "properties": { "zip": 94015, "address": "425 El Dorado Dr.\nDALY CITY, CA 94015", "dlon": -122.478024, "id": 20, "name": "DANIEL WEBSTER ELEMENTARY SCHOOL", "type": "ELEMENTARY SCHOOL", "dlat": 37.677698 }, "geometry": { "type": "Point", "coordinates": [ -122.478023978024154, 37.677697792434834, 0.0 ] } },
{ "type": "Feature", "properties": { "zip": 94080, "address": "1400 Hillside Blvd\nSOUTH SAN FRANCISCO, CA 94080", "dlon": -122.424282, "id": 21, "name": "MILLS MONTESSORI SCHHOL", "type": "ELEMENTARY SCHOOL", "dlat": 37.668370 }, "geometry": { "type": "Point", "coordinates": [ -122.424282464679365, 37.66837004557533, 0.0 ] } },
{ "type": "Feature", "properties": { "zip": 94080, "address": "1320 Mission Rd.\nSOUTH SAN FRANCISCO, CA 94080", "dlon": -122.442860, "id": 22, "name": "EL CAMINO HIGH SCHOOL", "type": "HIGH SCHOOL", "dlat": 37.664379 }, "geometry": { "type": "Point", "coordinates": [ -122.442860456594929, 37.664378853355792, 0.0 ] } },
{ "type": "Feature", "properties": { "zip": 94080, "address": "1200 Miller Ave.\nSOUTH SAN FRANCISCO, CA 94080", "dlon": -122.437004, "id": 24, "name": "SUNSHINE GARDENS ELEMENTARY SCHOOL", "type": "ELEMENTARY SCHOOL", "dlat": 37.665102 }, "geometry": { "type": "Point", "coordinates": [ -122.437004211697001, 37.665102392455445, 0.0 ] } },
{ "type": "Feature", "properties": { "zip": 94080, "address": "35 School St.\nSOUTH SAN FRANCISCO, CA 94080", "dlon": -122.410059, "id": 25, "name": "MARTIN ELEMENTARY SCHOOL", "type": "ELEMENTARY SCHOOL", "dlat": 37.662785 }, "geometry": { "type": "Point", "coordinates": [ -122.4100589492041, 37.662785243222466, 0.0 ] } },
{ "type": "Feature", "properties": { "zip": 94066, "address": "345 Oak Avenue\nSAN BRUNO, CA 94066", "dlon": -122.415628, "id": 26, "name": "SAINT ROBERT ELEMENTARY SCHOOL", "type": "ELEMENTARY SCHOOL", "dlat": 37.617227 }, "geometry": { "type": "Point", "coordinates": [ -122.415628382693072, 37.617227209176015, 0.0 ] } },
{ "type": "Feature", "properties": { "zip": 94403, "address": "2701 Hacienda St\nSAN MATEO, CA 94403", "dlon": -122.308409, "id": 27, "name": "SAINT GREGORY ELEMENTARY SCHOOL", "type": "ELEMENTARY SCHOOL", "dlat": 37.540634 }, "geometry": { "type": "Point", "coordinates": [ -122.308409429256017, 37.540633582103759, 0.0 ] } },
{ "type": "Feature", "properties": { "zip": 94002, "address": "1000 Alameda de las Pulgas\nBELMONT, CA 94002", "dlon": -122.294323, "id": 28, "name": "IMMACULATE HEART OF MARY ELEMENTARY SCHOOL", "type": "ELEMENTARY SCHOOL", "dlat": 37.512001 }, "geometry": { "type": "Point", "coordinates": [ -122.294323110779146, 37.51200110540502, 0.0 ] } },
{ "type": "Feature", "properties": { "zip": 94080, "address": "295 Ponderosa Rd.\nSOUTH SAN FRANCISCO, CA 94080", "dlon": -122.433580, "id": 29, "name": "PONDEROSA ELEMENTARY SCHOOL", "type": "ELEMENTARY SCHOOL", "dlat": 37.646507 }, "geometry": { "type": "Point", "coordinates": [ -122.433580110515038, 37.646507295888171, 0.0 ] } },
{ "type": "Feature", "properties": { "zip": 94080, "address": "400 B St.\nSOUTH SAN FRANCISCO, CA 94080", "dlon": -122.428261, "id": 30, "name": "SOUTH SAN FRANCISCO HIGH SCHOOL", "type": "HIGH SCHOOL", "dlat": 37.649787 }, "geometry": { "type": "Point", "coordinates": [ -122.428261104869392, 37.649786946902701, 0.0 ] } },
{ "type": "Feature", "properties": { "zip": 94070, "address": "1901 White Oak Way\nSAN CARLOS, CA 94070", "dlon": -122.253267, "id": 31, "name": "WHITE OAKS ELEMENTARY SCHOOL", "type": "K-4 SCHOOL", "dlat": 37.492120 }, "geometry": { "type": "Point", "coordinates": [ -122.253267367823156, 37.492119557727953, 0.0 ] } },
{ "type": "Feature", "properties": { "zip": 94403, "address": "525 W. 42nd Ave.\nSAN MATEO, CA 94403", "dlon": -122.303380, "id": 32, "name": "ALPHA BEACON CHRISTIAN SCHOOL", "type": "RELIGIOUS SCHOOL", "dlat": 37.524655 }, "geometry": { "type": "Point", "coordinates": [ -122.30338045278468, 37.524655165961782, 0.0 ] } },
{ "type": "Feature", "properties": { "zip": 94070, "address": "200 ARUNDEL RD.\nSAN CARLOS, CA 94070", "dlon": -122.274913, "id": 33, "name": "ARUNDEL ELEMENTARY SCHOOL", "type": "K-4 SCHOOL", "dlat": 37.503476 }, "geometry": { "type": "Point", "coordinates": [ -122.274913329216147, 37.503475936704099, 0.0 ] } },
{ "type": "Feature", "properties": { "zip": 94303, "address": "2450 Ralmar Street\nEAST PALO ALTO, CA 94303", "dlon": -122.147038, "id": 34, "name": "GREEN OAKS ACADEMY", "type": "ELEMENTARY SCHOOL", "dlat": 37.473846 }, "geometry": { "type": "Point", "coordinates": [ -122.147038388371911, 37.473845527058707, 0.0 ] } },
{ "type": "Feature", "properties": { "zip": 94065, "address": "225 Shearwater Parkway\n94065", "dlon": -122.245893, "id": 35, "name": "REDWOOD SHORES ELEMENTARY SCHOOL", "type": "ELEMENTARY SCHOOL", "dlat": 37.543558 }, "geometry": { "type": "Point", "coordinates": [ -122.245893472253286, 37.543557540561459, 0.0 ] } },
{ "type": "Feature", "properties": { "zip": 94010, "address": "701 Paloma Ave.\nBURLINGAME, CA 94010", "dlon": -122.355903, "id": 36, "name": "MCKINLEY ELEMENTARY SCHOOL", "type": "ELEMENTARY SCHOOL", "dlat": 37.579062 }, "geometry": { "type": "Point", "coordinates": [ -122.355902903779878, 37.579062439017903, 0.0 ] } },
{ "type": "Feature", "properties": { "zip": 94010, "address": "1151 Vancouver Ave.\nBURLINGAME, CA 94010", "dlon": -122.369049, "id": 37, "name": "ROOSEVELT ELEMENTARY SCHOOL", "type": "ELEMENTARY SCHOOL", "dlat": 37.579625 }, "geometry": { "type": "Point", "coordinates": [ -122.369048823596543, 37.579624659919546, 0.0 ] } },
{ "type": "Feature", "properties": { "zip": 94403, "address": "130 San Miguel Way\nSAN MATEO, CA 94403", "dlon": -122.291340, "id": 38, "name": "GEORGE HALL ELEMENTARY SCHOOL", "type": "ELEMENTARY SCHOOL", "dlat": 37.537674 }, "geometry": { "type": "Point", "coordinates": [ -122.291339604497949, 37.537673567367285, 0.0 ] } },
{ "type": "Feature", "properties": { "zip": 94402, "address": "600 Alameda de Las Pulgas\nSAN MATEO, CA 94402", "dlon": -122.332525, "id": 39, "name": "BAYWOOD ELEMENTARY SCHOOL", "type": "ELEMENTARY SCHOOL", "dlat": 37.553227 }, "geometry": { "type": "Point", "coordinates": [ -122.332525108198411, 37.553227393186276, 0.0 ] } },
{ "type": "Feature", "properties": { "zip": 94404, "address": "841 Gull Ave.\nFOSTER CITY, CA 94404", "dlon": -122.259181, "id": 40, "name": "AUDUBON ELEMENTARY SCHOOL", "type": "ELEMENTARY SCHOOL", "dlat": 37.567074 }, "geometry": { "type": "Point", "coordinates": [ -122.259181083339683, 37.567074452613475, 0.0 ] } },
{ "type": "Feature", "properties": { "zip": 94403, "address": "2025 Kehoe Ave.\nSAN MATEO, CA 94403", "dlon": -122.295950, "id": 41, "name": "THE BAYSIDE S.T.E.M. ACADEMY", "type": "MIDDLE SCHOOL", "dlat": 37.565584 }, "geometry": { "type": "Point", "coordinates": [ -122.295949825909688, 37.56558395341564, 0.0 ] } },
{ "type": "Feature", "properties": { "zip": 94402, "address": "1700 W. Hillsdale Blvd\nSAN MATEO, CA 94402", "dlon": -122.335202, "id": 42, "name": "COLLEGE OF SAN MATEO", "type": "COLLEGE", "dlat": 37.531835 }, "geometry": { "type": "Point", "coordinates": [ -122.335202191949634, 37.531835060396993, 0.0 ] } },
{ "type": "Feature", "properties": { "zip": 94010, "address": "303 El Cerrito Ave.\nHILLSBOROUGH, CA 94010", "dlon": -122.337583, "id": 43, "name": "SOUTH HILLSBOROUGH ELEMENTARY SCHOOL", "type": "ELEMENTARY SCHOOL", "dlat": 37.562700 }, "geometry": { "type": "Point", "coordinates": [ -122.337582914302146, 37.562699832744215, 0.0 ] } },
{ "type": "Feature", "properties": { "zip": 94402, "address": "1031 South Delaware St.\nSAN MATEO, CA 94402", "dlon": -122.313826, "id": 44, "name": "SUNNYBRAE ELEMENTARY SCHOOL", "type": "ELEMENTARY SCHOOL", "dlat": 37.561493 }, "geometry": { "type": "Point", "coordinates": [ -122.313826486913243, 37.561492936302137, 0.0 ] } },
{ "type": "Feature", "properties": { "zip": 94002, "address": "500 Biddulph Way\nBELMONT, CA 94002", "dlon": -122.274491, "id": 45, "name": "NESBIT ELEMENTARY SCHOOL", "type": "ELEMENTARY SCHOOL", "dlat": 37.525765 }, "geometry": { "type": "Point", "coordinates": [ -122.274490695231151, 37.525764799547403, 0.0 ] } },
{ "type": "Feature", "properties": { "zip": 94062, "address": "225 Clifford Ave.\nREDWOOD CITY, CA 94062", "dlon": -122.262919, "id": 46, "name": "CLIFFORD SCHOOL", "type": "K-8 SCHOOL", "dlat": 37.481496 }, "geometry": { "type": "Point", "coordinates": [ -122.262919073848252, 37.481495799670377, 0.0 ] } },
{ "type": "Feature", "properties": { "zip": 94061, "address": "701 Charter St.\nREDWOOD CITY, CA 94061", "dlon": -122.214274, "id": 47, "name": "HOOVER ELEMENTARY SCHOOL", "type": "K-8 SCHOOL", "dlat": 37.482152 }, "geometry": { "type": "Point", "coordinates": [ -122.214273675262504, 37.482152477304027, 0.0 ] } },
{ "type": "Feature", "properties": { "zip": 94010, "address": "1328 Cabrillo Ave.\nBURLINGAME, CA 94010", "dlon": -122.371899, "id": 48, "name": "OUR LADY OF ANGELS ELEMENTARY SCHOOL", "type": "ELEMENTARY SCHOOL", "dlat": 37.584389 }, "geometry": { "type": "Point", "coordinates": [ -122.371899182484626, 37.584388652781975, 0.0 ] } },
{ "type": "Feature", "properties": { "zip": 94063, "address": "903 10th Avenue\nREDWOOD CITY, CA 94063", "dlon": -122.193999, "id": 49, "name": "TAFT ELEMENTARY SCHOOL", "type": "ELEMENTARY SCHOOL", "dlat": 37.479998 }, "geometry": { "type": "Point", "coordinates": [ -122.193999001133847, 37.479997568836893, 0.0 ] } },
{ "type": "Feature", "properties": { "zip": 94062, "address": "468 Grand St.\nREDWOOD CITY, CA 94062", "dlon": -122.237395, "id": 50, "name": "REDEEMER LUTHERAN ELEMENTARY SCHOOL", "type": "ELEMENTARY SCHOOL", "dlat": 37.479467 }, "geometry": { "type": "Point", "coordinates": [ -122.237395131187768, 37.479467182120977, 0.0 ] } },
{ "type": "Feature", "properties": { "zip": 94044, "address": "909 Oceana Blvd.\nPACIFICA, CA 94044", "dlon": -122.490163, "id": 51, "name": "GOOD SHEPHERD ELEMENTARY SCHOOL", "type": "ELEMENTARY SCHOOL", "dlat": 37.640489 }, "geometry": { "type": "Point", "coordinates": [ -122.49016319902104, 37.640489141705594, 0.0 ] } },
{ "type": "Feature", "properties": { "zip": 94002, "address": "1400 Alameda de Las Pulgas\nBELMONT, CA 94002", "dlon": -122.288091, "id": 52, "name": "CARLMONT HIGH SCHOOL", "type": "HIGH SCHOOL", "dlat": 37.507155 }, "geometry": { "type": "Point", "coordinates": [ -122.288091109580975, 37.507155215480623, 0.0 ] } },
{ "type": "Feature", "properties": { "zip": 94080, "address": "825 Parkway Ave.\nSan Francisco, CA 94080", "dlon": -122.428049, "id": 53, "name": "PARKWAY HEIGHTS MIDDLE SCHOOL", "type": "MIDDLE SCHOOL", "dlat": 37.663526 }, "geometry": { "type": "Point", "coordinates": [ -122.428048937172321, 37.663526249398736, 0.0 ] } },
{ "type": "Feature", "properties": { "zip": 94080, "address": "1040 Miller Avenue\nSOUTH SAN FRANCISCO, CA 94080", "dlon": -122.433931, "id": 54, "name": "MATER DOLOROSA ELEMENTARY SCHOOL", "type": "RELIGIOUS SCHOOL K-8", "dlat": 37.661946 }, "geometry": { "type": "Point", "coordinates": [ -122.433931270044425, 37.661945534424497, 0.0 ] } },
{ "type": "Feature", "properties": { "zip": 94044, "address": "290 Edgewood Dr.\nPACIFICA, CA 94044", "dlon": -122.481406, "id": 55, "name": "FAIRMONT ELEMENTARY SCHOOL", "type": "ELEMENTARY SCHOOL", "dlat": 37.661198 }, "geometry": { "type": "Point", "coordinates": [ -122.481405881743967, 37.661197901000136, 0.0 ] } },
{ "type": "Feature", "properties": { "zip": 94015, "address": "151 Victoria St.\nDALY CITY, CA 94015", "dlon": -122.469849, "id": 56, "name": "JUNIPERO SERRA ELEMENTARY SCHOOL", "type": "ELEMENTARY SCHOOL", "dlat": 37.661027 }, "geometry": { "type": "Point", "coordinates": [ -122.469848841814738, 37.661027257057754, 0.0 ] } },
{ "type": "Feature", "properties": { "zip": 94019, "address": "901 Arnold Way\nHALF MOON BAY, CA 94019", "dlon": -122.427256, "id": 57, "name": "SEA CREST SCHOOL", "type": "ELEMENTARY SCHOOL", "dlat": 37.456223 }, "geometry": { "type": "Point", "coordinates": [ -122.427255509180782, 37.456222990709421, 0.0 ] } },
{ "type": "Feature", "properties": { "zip": 94014, "address": "60 Wellington Ave.\nDALY CITY, CA 94014", "dlon": -122.460984, "id": 58, "name": "OUR LADY OF PERPETUAL HELP ELEMENTARY SCHOOL", "type": "ELEMENTARY SCHOOL", "dlat": 37.705517 }, "geometry": { "type": "Point", "coordinates": [ -122.460983986316648, 37.705517037946912, 0.0 ] } },
{ "type": "Feature", "properties": { "zip": 94014, "address": "1 Martin St.\nDALY CITY, CA 94014", "dlon": -122.413388, "id": 59, "name": "GARNET J. ROBERTSON INTERMEDIATE SCHOOL", "type": "INTERMEDIATE SCHOOL", "dlat": 37.700710 }, "geometry": { "type": "Point", "coordinates": [ -122.413387797524905, 37.700709529887696, 0.0 ] } },
{ "type": "Feature", "properties": { "zip": 94015, "address": "1 Elmwood Dr.\nDALY CITY, CA 94015", "dlon": -122.488977, "id": 60, "name": "OUR LADY OF MERCY ELEMENTARY SCHOOL", "type": "ELEMENTARY SCHOOL", "dlat": 37.699844 }, "geometry": { "type": "Point", "coordinates": [ -122.4889768640939, 37.699844470657233, 0.0 ] } },
{ "type": "Feature", "properties": { "zip": 94014, "address": "785 Price St.\nDALY CITY, CA 94014", "dlon": -122.455365, "id": 61, "name": "JOHN F. KENNEDY ELEMENTARY SCHOOL", "type": "ELEMENTARY SCHOOL", "dlat": 37.694553 }, "geometry": { "type": "Point", "coordinates": [ -122.455365101469624, 37.694552797685468, 0.0 ] } },
{ "type": "Feature", "properties": { "zip": 94015, "address": "700 Stewart Ave.\nCOLMA, CA 94015", "dlon": -122.482098, "id": 62, "name": "BENJAMIN FRANKLIN INTERMEDIATE SCHOOL", "type": "INTERMEDIATE SCHOOL", "dlat": 37.694146 }, "geometry": { "type": "Point", "coordinates": [ -122.482097785735363, 37.694145806387482, 0.0 ] } },
{ "type": "Feature", "properties": { "zip": 94014, "address": "25 Bellevue Ave.\nDALY CITY, CA 94014", "dlon": -122.437259, "id": 63, "name": "PANORAMA ELEMENTARY SCHOOL", "type": "ELEMENTARY SCHOOL", "dlat": 37.706740 }, "geometry": { "type": "Point", "coordinates": [ -122.437258725976534, 37.706740194458682, 0.0 ] } },
{ "type": "Feature", "properties": { "zip": 94015, "address": "80 Fieldcrest Dr.\nDALY CITY, CA 94015", "dlon": -122.479893, "id": 64, "name": "WESTLAKE ELEMENTARY SCHOOL", "type": "ELEMENTARY SCHOOL", "dlat": 37.705347 }, "geometry": { "type": "Point", "coordinates": [ -122.479893008312715, 37.705347337419255, 0.0 ] } },
{ "type": "Feature", "properties": { "zip": 94015, "address": "131 Westmoor Ave.\nDALY CITY, CA 94015", "dlon": -122.484762, "id": 65, "name": "WESTMOOR HIGH SCHOOL", "type": "HIGH SCHOOL", "dlat": 37.683470 }, "geometry": { "type": "Point", "coordinates": [ -122.484761568132214, 37.683470220296272, 0.0 ] } },
{ "type": "Feature", "properties": { "zip": 94014, "address": "43 Miriam St.\nDALY CITY, CA 94014", "dlon": -122.465302, "id": 66, "name": "WOODROW WILSON ELEMENTARY SCHOOL", "type": "ELEMENTARY SCHOOL", "dlat": 37.704178 }, "geometry": { "type": "Point", "coordinates": [ -122.465302245379604, 37.704177510879873, 0.0 ] } },
{ "type": "Feature", "properties": { "zip": 94044, "address": "340 Inverness Dr.\nPACIFICA, CA 94044", "dlon": -122.479038, "id": 67, "name": "SUNSET RIDGE ELEMENTARY SCHOOL", "type": "ELEMENTARY SCHOOL", "dlat": 37.653183 }, "geometry": { "type": "Point", "coordinates": [ -122.479037579498581, 37.653182739980444, 0.0 ] } },
{ "type": "Feature", "properties": { "zip": 94015, "address": "55 Christen Ave.\nDALY CITY, CA 94015", "dlon": -122.466609, "id": 68, "name": "SKYLINE ELEMENTARY SCHOOL", "type": "ELEMENTARY SCHOOL", "dlat": 37.651574 }, "geometry": { "type": "Point", "coordinates": [ -122.466609409102347, 37.651574033291666, 0.0 ] } },
{ "type": "Feature", "properties": { "zip": 94080, "address": "825 Southwood Dr.\nSOUTH SAN FRANCISCO, CA 94080", "dlon": -122.435099, "id": 69, "name": "BADEN HIGH SCHOOL (CONTINUATION)", "type": "HIGH SCHOOL", "dlat": 37.649656 }, "geometry": { "type": "Point", "coordinates": [ -122.435098722384296, 37.649655682161864, 0.0 ] } },
{ "type": "Feature", "properties": { "zip": 94080, "address": "210 West Orange Ave.\nSOUTH SAN FRANCISCO, CA 94080", "dlon": -122.427399, "id": 70, "name": "LOS CERRITOS ELEMENTARY SCHOOL", "type": "ELEMENTARY SCHOOL", "dlat": 37.651494 }, "geometry": { "type": "Point", "coordinates": [ -122.427398518279048, 37.651493726593486, 0.0 ] } },
{ "type": "Feature", "properties": { "zip": 94066, "address": "875 West Angus Ave.\nSAN BRUNO, CA 94066", "dlon": -122.416436, "id": 71, "name": "ALLEN ELEMENTARY SCHOOL", "type": "K-6 SCHOOL", "dlat": 37.624772 }, "geometry": { "type": "Point", "coordinates": [ -122.416436304103414, 37.624771506937279, 0.0 ] } },
{ "type": "Feature", "properties": { "zip": 94066, "address": "1900 Monterey Dr.\nSAN BRUNO, CA 94066", "dlon": -122.447953, "id": 72, "name": "HIGHLANDS CHRISTIAN SCHOOLS", "type": "RELIGIOUS SCHOOL", "dlat": 37.621952 }, "geometry": { "type": "Point", "coordinates": [ -122.447953138891279, 37.621951776857969, 0.0 ] } },
{ "type": "Feature", "properties": { "zip": 94014, "address": "20 Allemany St.\nDALY CITY, CA 94014", "dlon": -122.467739, "id": 73, "name": "VACANT", "type": "EDUCATIONAL FACILITY", "dlat": 37.689481 }, "geometry": { "type": "Point", "coordinates": [ -122.467738659686461, 37.689480599247872, 0.0 ] } },
{ "type": "Feature", "properties": { "zip": 94014, "address": "251 Whittier St.\nDALY CITY, CA 94014", "dlon": -122.446626, "id": 74, "name": "GEORGE WASHINGTON ELEMENTARY SCHOOL", "type": "ELEMENTARY SCHOOL", "dlat": 37.707230 }, "geometry": { "type": "Point", "coordinates": [ -122.446626270622744, 37.707230363664337, 0.0 ] } },
{ "type": "Feature", "properties": { "zip": 94014, "address": "155 Oriente St.\nDALY CITY, CA 94014", "dlon": -122.414458, "id": 75, "name": "BAYSHORE ELEMENTARY SCHOOL", "type": "ELEMENTARY SCHOOL", "dlat": 37.705643 }, "geometry": { "type": "Point", "coordinates": [ -122.414458045862816, 37.705643275089756, 0.0 ] } },
{ "type": "Feature", "properties": { "zip": 94080, "address": "340 Alta Vista Dr.\nSOUTH SAN FRANCISCO, CA 94080", "dlon": -122.434039, "id": 76, "name": "AL-HUDA ISLAMIC SCHOOL", "type": "RELIGIOUS SCHOOL", "dlat": 37.640637 }, "geometry": { "type": "Point", "coordinates": [ -122.434039366119208, 37.640637008892533, 0.0 ] } },
{ "type": "Feature", "properties": { "zip": 94062, "address": "1201 Brewster Ave.\nREDWOOD CITY, CA 94062", "dlon": -122.237390, "id": 77, "name": "SEQUOIA HIGH SCHOOL", "type": "HIGH SCHOOL", "dlat": 37.486016 }, "geometry": { "type": "Point", "coordinates": [ -122.237389907484399, 37.486015730905287, 0.0 ] } },
{ "type": "Feature", "properties": { "zip": 94063, "address": "1305 Middlefield Rd.\nREDWOOD CITY, CA 94063", "dlon": -122.224723, "id": 78, "name": "PENINSULA CHRISTIAN SCHOOL", "type": "RELIGIOUS SCHOOL", "dlat": 37.483638 }, "geometry": { "type": "Point", "coordinates": [ -122.224722622627525, 37.483638019191538, 0.0 ] } },
{ "type": "Feature", "properties": { "zip": 94403, "address": "3115 Del Monte St.\nSAN MATEO, CA 94403", "dlon": -122.315026, "id": 79, "name": "HILLSDALE HIGH SCHOOL", "type": "HIGH SCHOOL", "dlat": 37.531774 }, "geometry": { "type": "Point", "coordinates": [ -122.315025603070254, 37.531774495464532, 0.0 ] } },
{ "type": "Feature", "properties": { "zip": 94403, "address": "2825 Alameda De Las Pulgas\nSAN MATEO, CA 94403", "dlon": -122.311807, "id": 80, "name": "GRACE LUTHERAN SCHOOL", "type": "RELIGIOUS SCHOOL", "dlat": 37.537591 }, "geometry": { "type": "Point", "coordinates": [ -122.311807234952965, 37.537590539103519, 0.0 ] } },
{ "type": "Feature", "properties": { "zip": 94028, "address": "302 Portola Road\nPORTOLA VALLEY, CA 94028", "dlon": -122.215233, "id": 81, "name": "WOODSIDE PRIORY SCHOOL", "type": "RELIGIOUS SCHOOL", "dlat": 37.374759 }, "geometry": { "type": "Point", "coordinates": [ -122.215232687913726, 37.374759210968875, 0.0 ] } },
{ "type": "Feature", "properties": { "zip": 94025, "address": "2037 Pulgas Ave.\nEAST PALO ALTO, CA 94025", "dlon": -122.130162, "id": 82, "name": "JAMES FLOOD ELEMENTARY SCHOOL", "type": "ELEMENTARY SCHOOL", "dlat": 37.461833 }, "geometry": { "type": "Point", "coordinates": [ -122.130161581923986, 37.461833393681687, 0.0 ] } },
{ "type": "Feature", "properties": { "zip": 94018, "address": "400 Santiago St.\nHalf Moon Bay, CA 94018", "dlon": -122.464534, "id": 83, "name": "EL GRANADA ELEMENTARY SCHOOL", "type": "ELEMENTARY SCHOOL", "dlat": 37.499946 }, "geometry": { "type": "Point", "coordinates": [ -122.464533797739477, 37.499946154926825, 0.0 ] } },
{ "type": "Feature", "properties": { "zip": 94402, "address": "2320 Newport St.\nSAN MATEO, CA 94402", "dlon": -122.349451, "id": 84, "name": "HIGHLANDS ELEMENTARY SCHOOL", "type": "ELEMENTARY SCHOOL", "dlat": 37.523670 }, "geometry": { "type": "Point", "coordinates": [ -122.349451185443044, 37.523669509584749, 0.0 ] } },
{ "type": "Feature", "properties": { "zip": 94002, "address": "525 Middle Rd.\nBELMONT, CA 94002", "dlon": -122.282352, "id": 85, "name": "CENTRAL ELEMENTARY SCHOOL", "type": "ELEMENTARY SCHOOL", "dlat": 37.523701 }, "geometry": { "type": "Point", "coordinates": [ -122.282351731908236, 37.523701489566001, 0.0 ] } },
{ "type": "Feature", "properties": { "zip": 94403, "address": "1 Carey School Ln.\nSAN MATEO, CA 94403", "dlon": -122.318752, "id": 86, "name": "CAREY ELEMENTARY SCHOOL", "type": "ELEMENTARY SCHOOL", "dlat": 37.544727 }, "geometry": { "type": "Point", "coordinates": [ -122.318752495791756, 37.544727171750765, 0.0 ] } },
{ "type": "Feature", "properties": { "zip": 94403, "address": "300 28th Avenue\nSAN MATEO, CA 94403", "dlon": -122.309189, "id": 87, "name": "BERESFORD ELEMENTARY SCHOOL", "type": "ELEMENTARY SCHOOL", "dlat": 37.539141 }, "geometry": { "type": "Point", "coordinates": [ -122.309189294483403, 37.539140844459588, 0.0 ] } },
{ "type": "Feature", "properties": { "zip": 94403, "address": "2619 Dolores St.\nSAN MATEO, CA 94403", "dlon": -122.317179, "id": 88, "name": "MEADOW HEIGHTS ELEMENTARY SCHOOL", "type": "ELEMENTARY SCHOOL", "dlat": 37.539013 }, "geometry": { "type": "Point", "coordinates": [ -122.317178722872455, 37.539012737949278, 0.0 ] } },
{ "type": "Feature", "properties": { "zip": 94403, "address": "316 36th Ave.\nSAN MATEO, CA 94403", "dlon": -122.303651, "id": 89, "name": "LAUREL ELEMENTARY SCHOOL", "type": "ELEMENTARY SCHOOL", "dlat": 37.531720 }, "geometry": { "type": "Point", "coordinates": [ -122.303650799871136, 37.531719905202216, 0.0 ] } },
{ "type": "Feature", "properties": { "zip": 94403, "address": "600 36th Ave.\nSAN MATEO, CA 94403", "dlon": -122.308705, "id": 90, "name": "ABBOTT MIDDLE SCHOOL", "type": "MIDDLE SCHOOL", "dlat": 37.529646 }, "geometry": { "type": "Point", "coordinates": [ -122.308704646201122, 37.529646497838719, 0.0 ] } },
{ "type": "Feature", "properties": { "zip": 94002, "address": "1405 Solana Dr.\nBELMONT, CA 94002", "dlon": -122.284276, "id": 91, "name": "CHARLES ARMSTRONG SCHOOL", "type": "K-8 SCHOOL", "dlat": 37.511262 }, "geometry": { "type": "Point", "coordinates": [ -122.284276406540442, 37.51126221194373, 0.0 ] } },
{ "type": "Feature", "properties": { "zip": 94401, "address": "515 E Poplar Ave.\nSAN MATEO, CA 94401", "dlon": -122.330035, "id": 92, "name": "STANBRIDGE ACADEMY", "type": "K-12 SCHOOL", "dlat": 37.574898 }, "geometry": { "type": "Point", "coordinates": [ -122.330034690769921, 37.574897590211002, 0.0 ] } },
{ "type": "Feature", "properties": { "zip": 94070, "address": "828 Chestnut St.\nSAN CARLOS, CA 94070", "dlon": -122.261116, "id": 93, "name": "CENTRAL MIDDLE SCHOOL", "type": "5-8 SCHOOL", "dlat": 37.501943 }, "geometry": { "type": "Point", "coordinates": [ -122.261115826289611, 37.501943458562344, 0.0 ] } },
{ "type": "Feature", "properties": { "zip": 94062, "address": "301 Grand St.\nREDWOOD CITY, CA 94062", "dlon": -122.239495, "id": 94, "name": "OUR LADY OF MOUNT CARMEL SCHOOL", "type": "ELEMENTARY SCHOOL", "dlat": 37.481288 }, "geometry": { "type": "Point", "coordinates": [ -122.239495342016383, 37.481287788839936, 0.0 ] } },
{ "type": "Feature", "properties": { "zip": 94044, "address": "1295 Seville Dr.\nPACIFICA, CA 94044", "dlon": -122.493711, "id": 95, "name": "ALMA HEIGHTS CHRISTIAN ACADEMY", "type": "RELIGIOUS SCHOOL", "dlat": 37.588397 }, "geometry": { "type": "Point", "coordinates": [ -122.493710829334347, 37.588396638658992, 0.0 ] } },
{ "type": "Feature", "properties": { "zip": 94010, "address": "1300 Bayswater Ave.\nBURLINGAME, CA 94010", "dlon": -122.344351, "id": 96, "name": "SAINT CATHERINE OF SIENA ELEMENTARY SCHOOL", "type": "ELEMENTARY SCHOOL", "dlat": 37.575986 }, "geometry": { "type": "Point", "coordinates": [ -122.344351136063054, 37.575985842879589, 0.0 ] } },
{ "type": "Feature", "properties": { "zip": 94070, "address": "2757 Melendy Dr\nSAN CARLOS, CA 94070", "dlon": -122.275786, "id": 97, "name": "HEATHER ELEMENTARY SCHOOL", "type": "K-4 SCHOOL", "dlat": 37.492333 }, "geometry": { "type": "Point", "coordinates": [ -122.275785967954491, 37.492332642436146, 0.0 ] } },
{ "type": "Feature", "properties": { "zip": 94063, "address": "815 Allerton St.\nREDWOOD CITY, CA 94063", "dlon": -122.233540, "id": 98, "name": "ORION ALTERNATIVE ELEMENTARY SCHOOL", "type": "ELEMENTARY SCHOOL", "dlat": 37.490225 }, "geometry": { "type": "Point", "coordinates": [ -122.233539557496755, 37.490225034394122, 0.0 ] } },
{ "type": "Feature", "properties": { "zip": 94044, "address": "411 Oceana Blvd.\nPACIFICA, CA 94044", "dlon": -122.490052, "id": 99, "name": "OCEAN SHORE ELEMENTARY SCHOOL", "type": "ELEMENTARY SCHOOL", "dlat": 37.651144 }, "geometry": { "type": "Point", "coordinates": [ -122.4900515537026, 37.651144445642196, 0.0 ] } },
{ "type": "Feature", "properties": { "zip": 94044, "address": "601 Crespi Dr.\nPACIFICA, CA 94044", "dlon": -122.497862, "id": 100, "name": "CABRILLO ELEMENTARY SCHOOL", "type": "ELEMENTARY SCHOOL", "dlat": 37.598114 }, "geometry": { "type": "Point", "coordinates": [ -122.49786239611484, 37.598114239061786, 0.0 ] } },
{ "type": "Feature", "properties": { "zip": 94044, "address": "377 Reina del Mar Ave.\nPACIFICA, CA 94044", "dlon": -122.484735, "id": 101, "name": "VALLEMAR ELEMENTARY SCHOOL", "type": "ELEMENTARY SCHOOL", "dlat": 37.613725 }, "geometry": { "type": "Point", "coordinates": [ -122.484734960033464, 37.613725449333238, 0.0 ] } },
{ "type": "Feature", "properties": { "zip": 94066, "address": "300 Piedmont Ave.\nSAN BRUNO, CA 94066", "dlon": -122.428732, "id": 102, "name": "PENINSULA HIGH SCHOOL (CONTINUATION)", "type": "HIGH SCHOOL", "dlat": 37.610602 }, "geometry": { "type": "Point", "coordinates": [ -122.42873225416794, 37.610601738294385, 0.0 ] } },
{ "type": "Feature", "properties": { "zip": 94066, "address": "201 Balboa Way\nSAN BRUNO, CA 94066", "dlon": -122.412509, "id": 103, "name": "EL CRYSTAL ELEMENTARY SCHOOL", "type": "K-6 SCHOOL", "dlat": 37.613823 }, "geometry": { "type": "Point", "coordinates": [ -122.412509238888831, 37.613822704323432, 0.0 ] } },
{ "type": "Feature", "properties": { "zip": 94066, "address": "130 Cambridge Ln.\nSAN BRUNO, CA 94066", "dlon": -122.435369, "id": 104, "name": "JOHN MUIR ELEMENTARY SCHOOL", "type": "K-6 SCHOOL", "dlat": 37.612993 }, "geometry": { "type": "Point", "coordinates": [ -122.435369400949099, 37.612993199254966, 0.0 ] } },
{ "type": "Feature", "properties": { "zip": 94030, "address": "1150 Magnolia Ave.\nMILLBRAE, CA 94030", "dlon": -122.400264, "id": 105, "name": "ST DUNSTON PARISH SCHOOL", "type": "ELEMENTARY SCHOOL", "dlat": 37.606313 }, "geometry": { "type": "Point", "coordinates": [ -122.400263655565666, 37.60631289309088, 0.0 ] } },
{ "type": "Feature", "properties": { "zip": 94061, "address": "4200 Farm Hill Blvd.\nREDWOOD CITY, CA 94061", "dlon": -122.260381, "id": 106, "name": "CAADA MIDDLE COLLEGE HIGH SCHOOL", "type": "HIGH SCHOOL", "dlat": 37.447435 }, "geometry": { "type": "Point", "coordinates": [ -122.26038143198528, 37.447434935572055, 0.0 ] } },
{ "type": "Feature", "properties": { "zip": 94044, "address": "1427 Palmetto Ave.\nor any location anymore, CA 94044", "dlon": -122.492221, "id": 107, "name": "INGRID B. LACY MIDDLE SCHOOL", "type": "MIDDLE SCHOOL", "dlat": 37.637494 }, "geometry": { "type": "Point", "coordinates": [ -122.492220912350191, 37.637493631083764, 0.0 ] } },
{ "type": "Feature", "properties": { "zip": 94066, "address": "3791 Pacific Heights Blvd\nSAN BRUNO, CA 94066", "dlon": -122.467095, "id": 108, "name": "PACIFIC HEIGHTS MIDDLE SCHOOL", "type": "MIDDLE SCHOOL", "dlat": 37.632570 }, "geometry": { "type": "Point", "coordinates": [ -122.467094766155412, 37.632569883034051, 0.0 ] } },
{ "type": "Feature", "properties": { "zip": 94066, "address": "2500 Cottonwood Dr.\nSAN BRUNO, CA 94066", "dlon": -122.443912, "id": 109, "name": "ROLLINGWOOD ELEMENTARY SCHOOL", "type": "K-6 SCHOOL", "dlat": 37.629568 }, "geometry": { "type": "Point", "coordinates": [ -122.443912052314317, 37.629568296853932, 0.0 ] } },
{ "type": "Feature", "properties": { "zip": 94080, "address": "120 El Campo Dr.\nSOUTH SAN FRANCISCO, CA 94080", "dlon": -122.444796, "id": 110, "name": "BURI BURI ELEMENTARY SCHOOL", "type": "ELEMENTARY SCHOOL", "dlat": 37.656202 }, "geometry": { "type": "Point", "coordinates": [ -122.444796307167593, 37.656202012395738, 0.0 ] } },
{ "type": "Feature", "properties": { "zip": 94066, "address": "2322 Crestmoor Dr.\nSAN BRUNO, CA 94066", "dlon": -122.434079, "id": 111, "name": "CRESTMOOR ELEMENTARY SCHOOL", "type": "K-6 SCHOOL", "dlat": 37.623815 }, "geometry": { "type": "Point", "coordinates": [ -122.43407936450555, 37.623815458266151, 0.0 ] } },
{ "type": "Feature", "properties": { "zip": 94401, "address": "1301 Cypress Ave.\nSAN MATEO, CA 94401", "dlon": -122.316461, "id": 112, "name": "NORTH SHOREVIEW ELEMENTARY SCHOOL", "type": "K-8 SCHOOL", "dlat": 37.574443 }, "geometry": { "type": "Point", "coordinates": [ -122.316460538667442, 37.574442894608815, 0.0 ] } },
{ "type": "Feature", "properties": { "zip": 94401, "address": "1515 Dolan Ave.\nSAN MATEO, CA 94401", "dlon": -122.310700, "id": 113, "name": "ST. TIMOTHY ELEMENTARY SCHOOL", "type": "ELEMENTARY SCHOOL", "dlat": 37.575170 }, "geometry": { "type": "Point", "coordinates": [ -122.310699669699844, 37.575169942324344, 0.0 ] } },
{ "type": "Feature", "properties": { "zip": 94402, "address": "910 S El Camino Real\nSAN MATEO, CA 94402", "dlon": -122.321459, "id": 114, "name": "ST. MATTHEWS CATHOLIC  SCHOOL", "type": "ELEMENTARY SCHOOL", "dlat": 37.558807 }, "geometry": { "type": "Point", "coordinates": [ -122.321459260778326, 37.558806588358088, 0.0 ] } },
{ "type": "Feature", "properties": { "zip": 94402, "address": "161 Clark Drive\nSAN MATEO, CA 94402", "dlon": -122.343007, "id": 115, "name": "PARK ELEMENTARY SCHOOL", "type": "ELEMENTARY SCHOOL", "dlat": 37.569653 }, "geometry": { "type": "Point", "coordinates": [ -122.34300700576803, 37.569652635636437, 0.0 ] } },
{ "type": "Feature", "properties": { "zip": 94401, "address": "949 Ocean View Ave.\nSAN MATEO, CA 94401", "dlon": -122.303079, "id": 116, "name": "HORRALL ELEMENTARY SCHOOL", "type": "ELEMENTARY SCHOOL", "dlat": 37.569678 }, "geometry": { "type": "Point", "coordinates": [ -122.303078865885922, 37.56967774060805, 0.0 ] } },
{ "type": "Feature", "properties": { "zip": 94404, "address": "1450 Terra Nova Blvd.\nPACIFICA, CA 94404", "dlon": -122.475499, "id": 117, "name": "TERRA NOVA HIGH SCHOOL", "type": "HIGH SCHOOL", "dlat": 37.591647 }, "geometry": { "type": "Point", "coordinates": [ -122.475499137153989, 37.591646691039564, 0.0 ] } },
{ "type": "Feature", "properties": { "zip": 94044, "address": "1283 Terra Nova Blvd.\nPACIFICA, CA 94044", "dlon": -122.477457, "id": 118, "name": "ORTEGA ELEMENTARY SCHOOL", "type": "ELEMENTARY SCHOOL", "dlat": 37.587892 }, "geometry": { "type": "Point", "coordinates": [ -122.477457026993832, 37.587892215810605, 0.0 ] } },
{ "type": "Feature", "properties": { "zip": 94070, "address": "1017 Cedar Street\nSAN CARLOS, CA 94070", "dlon": -122.259246, "id": 119, "name": "ARBOR BAY SCHOOL", "type": "K-8 SCHOOL", "dlat": 37.497193 }, "geometry": { "type": "Point", "coordinates": [ -122.259245721615969, 37.497192522050469, 0.0 ] } },
{ "type": "Feature", "properties": { "zip": 94044, "address": "930 Oddstad Boulevard\nPACIFICA, CA 94044", "dlon": -122.468590, "id": 120, "name": "ODDSTAD ELEMENTARY SCHOOL", "type": "ELEMENTARY SCHOOL", "dlat": 37.587294 }, "geometry": { "type": "Point", "coordinates": [ -122.468589647229834, 37.587293504699346, 0.0 ] } },
{ "type": "Feature", "properties": { "zip": 94010, "address": "2385 Trousdale Dr.\nBURLINGAME, CA 94010", "dlon": -122.388932, "id": 121, "name": "FRANKLIN ELEMENTARY SCHOOL", "type": "ELEMENTARY SCHOOL", "dlat": 37.589048 }, "geometry": { "type": "Point", "coordinates": [ -122.388932343402701, 37.589047995740835, 0.0 ] } },
{ "type": "Feature", "properties": { "zip": 94010, "address": "1715 Quesada Way\nBURLINGAME, CA 94010", "dlon": -122.385385, "id": 122, "name": "BURLINGAME INTERMEDIATE SCHOOL", "type": "INTERMEDIATE SCHOOL", "dlat": 37.588415 }, "geometry": { "type": "Point", "coordinates": [ -122.385385416470271, 37.588414882324187, 0.0 ] } },
{ "type": "Feature", "properties": { "zip": 94044, "address": "830 Rosita Rd.\nPACIFICA, CA 94044", "dlon": -122.497416, "id": 123, "name": "LINDA MAR EDUCATIONAL CENTER SCHOOL", "type": "K-8 SCHOOL", "dlat": 37.585708 }, "geometry": { "type": "Point", "coordinates": [ -122.497415707941499, 37.585707927385492, 0.0 ] } },
{ "type": "Feature", "properties": { "zip": 94010, "address": "1801 Devereux Dr.\nBURLINGAME, CA 94010", "dlon": -122.379178, "id": 124, "name": "LINCOLN ELEMENTARY SCHOOL", "type": "ELEMENTARY SCHOOL", "dlat": 37.588155 }, "geometry": { "type": "Point", "coordinates": [ -122.379178433352791, 37.588155429493462, 0.0 ] } },
{ "type": "Feature", "properties": { "zip": 94404, "address": "1151 Polynesia Dr.\nFOSTER CITY, CA 94404", "dlon": -122.261208, "id": 125, "name": "BREWER ISLAND ELEMENTARY SCHOOL", "type": "ELEMENTARY SCHOOL", "dlat": 37.560724 }, "geometry": { "type": "Point", "coordinates": [ -122.261207602670595, 37.560723717601384, 0.0 ] } },
{ "type": "Feature", "properties": { "zip": 94404, "address": "1450 Tarpon St.\nFOSTER CITY, CA 94404", "dlon": -122.248841, "id": 126, "name": "BOWDITCH MIDDLE SCHOOL", "type": "MIDDLE SCHOOL", "dlat": 37.560538 }, "geometry": { "type": "Point", "coordinates": [ -122.248840769242008, 37.560537606805681, 0.0 ] } },
{ "type": "Feature", "properties": { "zip": 94063, "address": "455 5th Ave.\nRedwood City, CA 94063", "dlon": -122.203778, "id": 127, "name": "EVEREST PUBLIC HIGH SCHOOL", "type": "HIGH SCHOOL", "dlat": 37.473430 }, "geometry": { "type": "Point", "coordinates": [ -122.203777813381748, 37.473429871452183, 0.0 ] } },
{ "type": "Feature", "properties": { "zip": 94303, "address": "1039 Garden St.\nEAST PALO ALTO, CA 94303", "dlon": -122.131799, "id": 128, "name": "ASPIRE EPA PHOENIX ACADEMY", "type": "7-12 SCHOOL", "dlat": 37.466978 }, "geometry": { "type": "Point", "coordinates": [ -122.131799260094255, 37.466978305242783, 0.0 ] } },
{ "type": "Feature", "properties": { "zip": 94014, "address": "79 Florence St.\nDALY CITY, CA 94014", "dlon": -122.458427, "id": 129, "name": "HILLDALE SCHOOL", "type": "K-8 SCHOOL", "dlat": 37.697857 }, "geometry": { "type": "Point", "coordinates": [ -122.458427246270759, 37.697856886050488, 0.0 ] } },
{ "type": "Feature", "properties": { "zip": 94030, "address": "850 Taylor Blvd.\nMILLBRAE, CA 94030", "dlon": -122.400968, "id": 130, "name": "TAYLOR MIDDLE SCHOOL", "type": "MIDDLE SCHOOL", "dlat": 37.597582 }, "geometry": { "type": "Point", "coordinates": [ -122.400967828747213, 37.597582161592634, 0.0 ] } },
{ "type": "Feature", "properties": { "zip": 94002, "address": "2675 Ralston Ave.\nBELMONT, CA 94002", "dlon": -122.312876, "id": 131, "name": "RALSTON INTERMEDIATE SCHOOL", "type": "MIDDLE SCHOOL", "dlat": 37.512271 }, "geometry": { "type": "Point", "coordinates": [ -122.312876116055051, 37.512270941165099, 0.0 ] } },
{ "type": "Feature", "properties": { "zip": 94002, "address": "3100 Saint James Rd.\nBELMONT, CA 94002", "dlon": -122.321811, "id": 132, "name": "FOX ELEMENTARY SCHOOL", "type": "ELEMENTARY SCHOOL", "dlat": 37.507639 }, "geometry": { "type": "Point", "coordinates": [ -122.321811426420837, 37.507639287736552, 0.0 ] } },
{ "type": "Feature", "properties": { "zip": 94025, "address": "50 Terminal Ave.\nMENLO PARK, CA 94025", "dlon": -122.167743, "id": 133, "name": "BEECHWOOD ELEMENTARY SCHOOL", "type": "ELEMENTARY SCHOOL", "dlat": 37.478792 }, "geometry": { "type": "Point", "coordinates": [ -122.167742746463873, 37.478792121993351, 0.0 ] } },
{ "type": "Feature", "properties": { "zip": 94303, "address": "2033 Pulgas Ave.\nEAST PALO ALTO, CA 94303", "dlon": -122.130159, "id": 134, "name": "RONALD MCNAIR ACADEMY MIDDLE SCHOOL", "type": "MIDDLE SCHOOL", "dlat": 37.461740 }, "geometry": { "type": "Point", "coordinates": [ -122.130159186117112, 37.461740468101191, 0.0 ] } },
{ "type": "Feature", "properties": { "zip": 94010, "address": "2750 Adeline Dr.\nBURLINGAME, CA 94010", "dlon": -122.383068, "id": 135, "name": "MERCY HIGH SCHOOL", "type": "HIGH SCHOOL", "dlat": 37.580950 }, "geometry": { "type": "Point", "coordinates": [ -122.383068162787538, 37.580949720620147, 0.0 ] } },
{ "type": "Feature", "properties": { "zip": 94061, "address": "2521 Goodwin Ave.\nREDWOOD CITY, CA 94061", "dlon": -122.239041, "id": 136, "name": "JOHN F. KENNEDY MIDDLE SCHOOL", "type": "MIDDLE SCHOOL", "dlat": 37.460090 }, "geometry": { "type": "Point", "coordinates": [ -122.23904065434543, 37.460089887130906, 0.0 ] } },
{ "type": "Feature", "properties": { "zip": 94025, "address": "320 Middlefield Rd.\nMENLO PARK, CA 94025", "dlon": -122.167416, "id": 137, "name": "ST. PATRICK'S SEMINARY AND UNIVERSITY", "type": "RELIGIOUS SCHOOL", "dlat": 37.456329 }, "geometry": { "type": "Point", "coordinates": [ -122.167416084890576, 37.456328965710789, 0.0 ] } },
{ "type": "Feature", "properties": { "zip": 94025, "address": "1250 Laurel St.\nMENLO PARK, CA 94025", "dlon": -122.183215, "id": 138, "name": "NATIVITY ELEMENTARY SCHOOL", "type": "ELEMENTARY SCHOOL", "dlat": 37.457766 }, "geometry": { "type": "Point", "coordinates": [ -122.183215369341724, 37.457765827348851, 0.0 ] } },
{ "type": "Feature", "properties": { "zip": 94061, "address": "2498 Massachusetts Ave.\nREDWOOD CITY, CA 94061", "dlon": -122.232593, "id": 139, "name": "HENRY FORD ELEMENTARY SCHOOL", "type": "ELEMENTARY SCHOOL", "dlat": 37.456559 }, "geometry": { "type": "Point", "coordinates": [ -122.23259263616923, 37.456558503774353, 0.0 ] } },
{ "type": "Feature", "properties": { "zip": 94066, "address": "2551 St. Cloud Dr.\nSAN BRUNO, CA 94066", "dlon": -122.452533, "id": 140, "name": "MONTE VERDE ELEMENTARY SCHOOL", "type": "ELEMENTARY SCHOOL", "dlat": 37.636678 }, "geometry": { "type": "Point", "coordinates": [ -122.452533293690436, 37.636678272610482, 0.0 ] } },
{ "type": "Feature", "properties": { "zip": 94066, "address": "200 Santa Helena Ave.\nSAN BRUNO, CA 94066", "dlon": -122.400996, "id": 141, "name": "LOMITA PARK ELEMENTARY SCHOOL", "type": "ELEMENTARY SCHOOL", "dlat": 37.612156 }, "geometry": { "type": "Point", "coordinates": [ -122.400996129271931, 37.612155657266321, 0.0 ] } },
{ "type": "Feature", "properties": { "zip": 94015, "address": "1267 Southgate Ave.\nDALY CITY, CA 94015", "dlon": -122.485344, "id": 142, "name": "THOMAS EDISON ELEMENTARY SCHOOL", "type": "ELEMENTARY SCHOOL", "dlat": 37.676187 }, "geometry": { "type": "Point", "coordinates": [ -122.485343724945324, 37.676186596955134, 0.0 ] } },
{ "type": "Feature", "properties": { "zip": 94010, "address": "2600 Ralston Ave.\nHILLSBOROUGH, CA 94010", "dlon": -122.362667, "id": 143, "name": "CROCKER MIDDLE SCHOOL", "type": "MIDDLE SCHOOL", "dlat": 37.566220 }, "geometry": { "type": "Point", "coordinates": [ -122.36266698610396, 37.566220098498704, 0.0 ] } },
{ "type": "Feature", "properties": { "zip": 94063, "address": "890 Broadway St.\nREDWOOD CITY, CA 94063", "dlon": -122.210945, "id": 144, "name": "SUMMIT PREPARATORY CHARTER HIGH SCHOOL", "type": "HIGH SCHOOL", "dlat": 37.486598 }, "geometry": { "type": "Point", "coordinates": [ -122.210944809873695, 37.486598289427668, 0.0 ] } },
{ "type": "Feature", "properties": { "zip": 94066, "address": "1290 Commodore Dr.\nSAN BRUNO, CA 94066", "dlon": -122.426615, "id": 145, "name": "SPECIAL EDUCATION SERVICES", "type": "SPECIAL EDUCATION", "dlat": 37.631209 }, "geometry": { "type": "Point", "coordinates": [ -122.426615494575117, 37.631209094546001, 0.0 ] } },
{ "type": "Feature", "properties": { "zip": 94044, "address": "401 Paloma Ave.\nPACIFICA, CA 94044", "dlon": -122.485134, "id": 146, "name": "OCEANA HIGH SCHOOL", "type": "HIGH SCHOOL", "dlat": 37.636890 }, "geometry": { "type": "Point", "coordinates": [ -122.485133650322851, 37.636890079199055, 0.0 ] } },
{ "type": "Feature", "properties": { "zip": 94401, "address": "16 Baldwin Ave.\nSAN MATEO, CA 94401", "dlon": -122.327875, "id": 147, "name": "ST. MATTHEW'S EPISCOPAL DAY SCHOOL", "type": "RELIGIOUS SCHOOL", "dlat": 37.565464 }, "geometry": { "type": "Point", "coordinates": [ -122.327874651245068, 37.565464202045938, 0.0 ] } },
{ "type": "Feature", "properties": { "zip": 94002, "address": "2525 Buena Vista\nBELMONT, CA 94002", "dlon": -122.305288, "id": 148, "name": "CIPRIANI ELEMENTARY SCHOOL", "type": "ELEMENTARY SCHOOL", "dlat": 37.516827 }, "geometry": { "type": "Point", "coordinates": [ -122.305287695608797, 37.516827417727683, 0.0 ] } },
{ "type": "Feature", "properties": { "zip": 94303, "address": "1041 Myrtle Ave.\nEAST PALO ALTO, CA 94303", "dlon": -122.132864, "id": 149, "name": "EASTSIDE COLLEGE PREPARATORY SCHOOL", "type": "MIDDLE\/HIGH SCHOOL", "dlat": 37.463341 }, "geometry": { "type": "Point", "coordinates": [ -122.132863582246259, 37.463341091914266, 0.0 ] } },
{ "type": "Feature", "properties": { "zip": 94002, "address": "2200 Carlmont Drive\nBELMONT, CA 94002", "dlon": -122.297140, "id": 150, "name": "BELMONT OAKS ACADEMY", "type": "ELEMENTARY SCHOOL", "dlat": 37.510815 }, "geometry": { "type": "Point", "coordinates": [ -122.297140395495063, 37.510814739829954, 0.0 ] } },
{ "type": "Feature", "properties": { "zip": 94025, "address": "2200 Sharon Rd.\nMENLO PARK, CA 94025", "dlon": -122.200620, "id": 151, "name": "LA ENTRADA MIDDLE SCHOOL", "type": "MIDDLE SCHOOL", "dlat": 37.428637 }, "geometry": { "type": "Point", "coordinates": [ -122.200619938714027, 37.428637341332426, 0.0 ] } },
{ "type": "Feature", "properties": { "zip": 94066, "address": "3300 College Dr.\nSAN BRUNO, CA 94066", "dlon": -122.461223, "id": 152, "name": "SKYLINE COLLEGE", "type": "COLLEGE", "dlat": 37.632199 }, "geometry": { "type": "Point", "coordinates": [ -122.46122254651678, 37.632199405334553, 0.0 ] } },
{ "type": "Feature", "properties": { "zip": 94014, "address": "20 Reiner St.\nCOLMA, CA 94014", "dlon": -122.466683, "id": 153, "name": "HOLY ANGELS ELEMENTARY SCHOOL", "type": "ELEMENTARY SCHOOL", "dlat": 37.686334 }, "geometry": { "type": "Point", "coordinates": [ -122.466683062870814, 37.686334131588161, 0.0 ] } },
{ "type": "Feature", "properties": { "zip": 94010, "address": "545 Eucalyptus Ave.\nHILLSBOROUGH, CA 94010", "dlon": -122.361922, "id": 154, "name": "NORTH HILLSBOROUGH ELEMENTARY SCHOOL", "type": "ELEMENTARY SCHOOL", "dlat": 37.569121 }, "geometry": { "type": "Point", "coordinates": [ -122.361922395921155, 37.569121017594568, 0.0 ] } },
{ "type": "Feature", "properties": { "zip": 94014, "address": "575 Abbot Ave.\nDALY CITY, CA 94014", "dlon": -122.458096, "id": 155, "name": "SUSAN B. ANTHONY ELEMENTARY SCHOOL", "type": "ELEMENTARY SCHOOL", "dlat": 37.688803 }, "geometry": { "type": "Point", "coordinates": [ -122.458095887406884, 37.688803464961744, 0.0 ] } },
{ "type": "Feature", "properties": { "zip": 94303, "address": "2086 Clarke St.\nEAST PALO ALTO, CA 94303", "dlon": -122.134603, "id": 156, "name": "EDISON-BRENTWOOD ELEMENTARY", "type": "ELEMENTARY SCHOOL", "dlat": 37.462261 }, "geometry": { "type": "Point", "coordinates": [ -122.134603202133306, 37.462261020851834, 0.0 ] } },
{ "type": "Feature", "properties": { "zip": 94402, "address": "201 Polhemus Rd.\nSAN MATEO, CA 94402", "dlon": -122.349846, "id": 157, "name": "THE ODYSSEY SCHOOL FOR THE GIFTED", "type": "MIDDLE SCHOOL", "dlat": 37.534140 }, "geometry": { "type": "Point", "coordinates": [ -122.349846164791984, 37.534139816662332, 0.0 ] } },
{ "type": "Feature", "properties": { "zip": 94027, "address": "555 Middlefield Rd.\nATHERTON, CA 94027", "dlon": -122.176765, "id": 158, "name": "MENLO-ATHERTON HIGH SCHOOL", "type": "HIGH SCHOOL", "dlat": 37.461062 }, "geometry": { "type": "Point", "coordinates": [ -122.176764803543406, 37.461061566372678, 0.0 ] } },
{ "type": "Feature", "properties": { "zip": 94404, "address": "1998 Beach Park Blvd.\nFOSTER CITY, CA 94404", "dlon": -122.265336, "id": 159, "name": "KIDS CONNECTION ELEMENTARY SCHOOL", "type": "ELEMENTARY SCHOOL", "dlat": 37.569361 }, "geometry": { "type": "Point", "coordinates": [ -122.265336061188734, 37.569360792479472, 0.0 ] } },
{ "type": "Feature", "properties": { "zip": 94025, "address": "275 Elliott Dr.\nMENLO PARK, CA 94025", "dlon": -122.149415, "id": 160, "name": "THE GERMAN-AMERICAN INTERNATIONAL SCHOOL", "type": "K-8 SCHOOL", "dlat": 37.459830 }, "geometry": { "type": "Point", "coordinates": [ -122.149415406072166, 37.459829932730528, 0.0 ] } },
{ "type": "Feature", "properties": { "zip": 94025, "address": "1340 Willow Road\nMENLO PARK, CA 94025", "dlon": -122.152602, "id": 161, "name": "MID-PENINSULA HIGH SCHOOL", "type": "HIGH SCHOOL", "dlat": 37.476220 }, "geometry": { "type": "Point", "coordinates": [ -122.152602422986007, 37.476219610142053, 0.0 ] } },
{ "type": "Feature", "properties": { "zip": 94303, "address": "2450 Ralmar St.\nEAST PALO ALTO, CA 94303", "dlon": -122.147038, "id": 162, "name": "CESAR CHAVEZ ACADEMY MIDDLE SCHOOL", "type": "MIDDLE SCHOOL", "dlat": 37.473846 }, "geometry": { "type": "Point", "coordinates": [ -122.147038388371911, 37.473845527058707, 0.0 ] } },
{ "type": "Feature", "properties": { "zip": 94066, "address": "450 3rd Ave\nSAN BRUNO, CA 94066", "dlon": -122.406261, "id": 163, "name": "BELLE AIR ELEMENTARY SCHOOL", "type": "K-6 SCHOOL", "dlat": 37.624939 }, "geometry": { "type": "Point", "coordinates": [ -122.406260720367555, 37.624938565045468, 0.0 ] } },
{ "type": "Feature", "properties": { "zip": 94030, "address": "1101 Helen Dr.\nMILLBRAE, CA 94030", "dlon": -122.418011, "id": 164, "name": "MEADOWS ELEMENTARY SCHOOL", "type": "ELEMENTARY SCHOOL", "dlat": 37.601821 }, "geometry": { "type": "Point", "coordinates": [ -122.418010918744116, 37.601821030133017, 0.0 ] } },
{ "type": "Feature", "properties": { "zip": 94063, "address": "452 Fifth Avenue\nREDWOOD CITY, CA 94063", "dlon": -122.203682, "id": 165, "name": "WHERRY ACADEMY", "type": "K-12 SCHOOL", "dlat": 37.473336 }, "geometry": { "type": "Point", "coordinates": [ -122.203682146397256, 37.47333593294487, 0.0 ] } },
{ "type": "Feature", "properties": { "zip": 94025, "address": "475 Pope St.\nMENLO PARK, CA 94025", "dlon": -122.156367, "id": 166, "name": "EAST PALO ALTO ACADEMY", "type": "HIGH SCHOOL", "dlat": 37.460482 }, "geometry": { "type": "Point", "coordinates": [ -122.156366938049956, 37.460481949081839, 0.0 ] } },
{ "type": "Feature", "properties": { "zip": 94019, "address": "498 Kelly Ave.\nHALF MOON BAY, CA 94019", "dlon": -122.434290, "id": 167, "name": "PILARCITOS ALTERNATIVE HIGH", "type": "HIGH SCHOOL", "dlat": 37.464046 }, "geometry": { "type": "Point", "coordinates": [ -122.434290096694767, 37.464046354854887, 0.0 ] } },
{ "type": "Feature", "properties": { "zip": 94070, "address": "750 Dartmouth Ave.\nSAN CARLOS, CA 94070", "dlon": -122.285081, "id": 168, "name": "SAN CARLOS CHARTER LEARNING CENTER", "type": "K-8 SCHOOL", "dlat": 37.507894 }, "geometry": { "type": "Point", "coordinates": [ -122.285081350933922, 37.507893877382344, 0.0 ] } },
{ "type": "Feature", "properties": { "zip": 94080, "address": "434 Alida Way\nSOUTH SAN FRANCISCO, CA 94080", "dlon": -122.430128, "id": 169, "name": "SAINT VERONICA ELEMENTARY SCHOOL", "type": "RELIGIOUS SCHOOL K-8", "dlat": 37.646028 }, "geometry": { "type": "Point", "coordinates": [ -122.430128334035814, 37.646028051145528, 0.0 ] } },
{ "type": "Feature", "properties": { "zip": 94015, "address": "305 Eastmoor Ave.\nDALY CITY, CA 94015", "dlon": -122.476634, "id": 170, "name": "MARGARET PAULINE BROWN ELEMENTARY SCHOOL", "type": "ELEMENTARY SCHOOL", "dlat": 37.684692 }, "geometry": { "type": "Point", "coordinates": [ -122.476633949208022, 37.684692392666001, 0.0 ] } },
{ "type": "Feature", "properties": { "zip": 94062, "address": "400 Duane St.\nREDWOOD CITY, CA 94062", "dlon": -122.236020, "id": 171, "name": "MCKINLEY INSTITUTE OF TECHNOLOGY", "type": "MIDDLE SCHOOL", "dlat": 37.482047 }, "geometry": { "type": "Point", "coordinates": [ -122.236020147356001, 37.482046791255648, 0.0 ] } },
{ "type": "Feature", "properties": { "zip": 94063, "address": "3150 Granger Way\nREDWOOD CITY, CA 94063", "dlon": -122.243501, "id": 172, "name": "ADELANTE SPANISH IMMERSION SCHOOL", "type": "ELEMENTARY SCHOOL", "dlat": 37.454265 }, "geometry": { "type": "Point", "coordinates": [ -122.243501125701002, 37.454265376265539, 0.0 ] } },
{ "type": "Feature", "properties": { "zip": 94014, "address": "6996 Mission St.\nDALY CITY, CA 94014", "dlon": -122.464802, "id": 173, "name": "JEFFERSON HIGH SCHOOL", "type": "HIGH SCHOOL", "dlat": 37.695762 }, "geometry": { "type": "Point", "coordinates": [ -122.464802015818705, 37.695762247338529, 0.0 ] } },
{ "type": "Feature", "properties": { "zip": 94025, "address": "415 Ivy Dr.\nMENLO PARK, CA 94025", "dlon": -122.160771, "id": 174, "name": "BELLE HAVEN ELEMENTARY SCHOOL", "type": "ELEMENTARY SCHOOL", "dlat": 37.475946 }, "geometry": { "type": "Point", "coordinates": [ -122.160770962866337, 37.475946085959222, 0.0 ] } },
{ "type": "Feature", "properties": { "zip": 94061, "address": "1100 Woodside Rd.\nREDWOOD CITY, CA 94061", "dlon": -122.225611, "id": 175, "name": "SAINT PIUS ELEMENTARY SCHOOL", "type": "ELEMENTARY SCHOOL", "dlat": 37.461103 }, "geometry": { "type": "Point", "coordinates": [ -122.225611125613767, 37.461103297069798, 0.0 ] } },
{ "type": "Feature", "properties": { "zip": 94002, "address": "1500 Ralston Avenue\nBELMONT, CA 94002", "dlon": -122.283568, "id": 176, "name": "NOTRE DAME de NAMUR UNIVERSITY", "type": "UNIVERSITY", "dlat": 37.515351 }, "geometry": { "type": "Point", "coordinates": [ -122.283568456841422, 37.515351271667356, 0.0 ] } },
{ "type": "Feature", "properties": { "zip": 94025, "address": "2650 Sand Hill Rd.\nMENLO PARK, CA 94025", "dlon": -122.207637, "id": 177, "name": "TRINITY EPISCOPAL ELEMENTARY SCHOOL", "type": "ELEMENTARY SCHOOL", "dlat": 37.420934 }, "geometry": { "type": "Point", "coordinates": [ -122.207637486983728, 37.420934388935279, 0.0 ] } },
{ "type": "Feature", "properties": { "zip": 94401, "address": "715 Indian Avenue\nSAN MATEO, CA 94401", "dlon": -122.327782, "id": 178, "name": "COLLEGE PARK ELEMENTARY SCHOOL", "type": "ELEMENTARY SCHOOL", "dlat": 37.575627 }, "geometry": { "type": "Point", "coordinates": [ -122.327781594764801, 37.575627012854163, 0.0 ] } },
{ "type": "Feature", "properties": { "zip": 94080, "address": "1415 Hillside Blvd.\nSOUTH SAN FRANCISCO, CA 94080", "dlon": -122.424543, "id": 179, "name": "HILLSIDE CHRISTIAN ACADEMY", "type": "RELIGIOUS SCHOOL K-6", "dlat": 37.668108 }, "geometry": { "type": "Point", "coordinates": [ -122.424543103672562, 37.668108283395782, 0.0 ] } },
{ "type": "Feature", "properties": { "zip": 94402, "address": "1685 Eisenhower St.\nSAN MATEO, CA 94402", "dlon": -122.296950, "id": 180, "name": "PARKSIDE ELEMENTARY SCHOOL", "type": "ELEMENTARY SCHOOL", "dlat": 37.560394 }, "geometry": { "type": "Point", "coordinates": [ -122.296949753228859, 37.560394207591386, 0.0 ] } },
{ "type": "Feature", "properties": { "zip": 94061, "address": "3790 Red Oak Way\nREDWOOD CITY, CA 94061", "dlon": -122.256226, "id": 181, "name": "ROY CLOUD ELEMENTARY SCHOOL", "type": "K-8 SCHOOL", "dlat": 37.458605 }, "geometry": { "type": "Point", "coordinates": [ -122.256226265655442, 37.45860494606643, 0.0 ] } },
{ "type": "Feature", "properties": { "zip": 94070, "address": "2000 Belle Ave.\nSAN CARLOS, CA 94070", "dlon": -122.263747, "id": 182, "name": "BRITTAN ACRES ELEMENTARY SCHOOL", "type": "K-4 SCHOOL", "dlat": 37.496311 }, "geometry": { "type": "Point", "coordinates": [ -122.263746582125023, 37.496311263819344, 0.0 ] } },
{ "type": "Feature", "properties": { "zip": 94303, "address": "1286 Runnymede St.\nEAST PALO ALTO, CA 94303", "dlon": -122.127281, "id": 183, "name": "ASPIRE EPA CHARTER SCHOOL", "type": "K- 6 SCHOOL", "dlat": 37.468665 }, "geometry": { "type": "Point", "coordinates": [ -122.127281018082769, 37.468665101148019, 0.0 ] } },
{ "type": "Feature", "properties": { "zip": 94062, "address": "199 Churchill Ave\nWOODSIDE, CA 94062", "dlon": -122.230595, "id": 184, "name": "WOODSIDE HIGH SCHOOL", "type": "HIGH SCHOOL", "dlat": 37.442611 }, "geometry": { "type": "Point", "coordinates": [ -122.230594839571211, 37.442611405444147, 0.0 ] } },
{ "type": "Feature", "properties": { "zip": 94062, "address": "400 Duane St.\nREDWOOD CITY, CA 94062", "dlon": -122.236020, "id": 185, "name": "NORTH STAR ACADEMY ELEMENTARY SCHOOL", "type": "3-8 SCHOOL", "dlat": 37.482047 }, "geometry": { "type": "Point", "coordinates": [ -122.236020147356001, 37.482046791255648, 0.0 ] } },
{ "type": "Feature", "properties": { "zip": 94066, "address": "1501 Magnolia Dr.\nSAN BRUNO, CA 94066", "dlon": -122.403971, "id": 186, "name": "CAPUCHINO HIGH SCHOOL", "type": "HIGH SCHOOL", "dlat": 37.610142 }, "geometry": { "type": "Point", "coordinates": [ -122.403971267746243, 37.610141862370945, 0.0 ] } },
{ "type": "Feature", "properties": { "zip": 94027, "address": "195 Encinal Ave.\nATHERTON, CA 94027", "dlon": -122.185042, "id": 187, "name": "ENCINAL ELEMENTARY SCHOOL", "type": "ELEMENTARY SCHOOL", "dlat": 37.464682 }, "geometry": { "type": "Point", "coordinates": [ -122.185041801519546, 37.464681842326002, 0.0 ] } },
{ "type": "Feature", "properties": { "zip": 94025, "address": "2245 Avy Ave\nMENLO PARK, CA 94025", "dlon": -122.205199, "id": 188, "name": "PHILLIPS BROOKS ELEMENTARY SCHOOL", "type": "ELEMENTARY SCHOOL", "dlat": 37.429138 }, "geometry": { "type": "Point", "coordinates": [ -122.205199478167259, 37.429137804477136, 0.0 ] } },
{ "type": "Feature", "properties": { "zip": 94030, "address": "817 Murchison Dr.\nMILLBRAE, CA 94030", "dlon": -122.390559, "id": 189, "name": "SPRING VALLEY ELEMENTARY SCHOOL", "type": "ELEMENTARY SCHOOL", "dlat": 37.592133 }, "geometry": { "type": "Point", "coordinates": [ -122.390558526730601, 37.592132600122198, 0.0 ] } },
{ "type": "Feature", "properties": { "zip": 94025, "address": "920 Peninsula Way\nMENLO PARK, CA 94025", "dlon": -122.166109, "id": 190, "name": "PENINSULA SCHOOL LTD.", "type": "K-8 SCHOOL", "dlat": 37.465618 }, "geometry": { "type": "Point", "coordinates": [ -122.166108526807449, 37.465617620343281, 0.0 ] } },
{ "type": "Feature", "properties": { "zip": 94027, "address": "299 Alameda de Las Pulgas\nATHERTON, CA 94027", "dlon": -122.212158, "id": 191, "name": "LAS LOMITAS ELEMENTARY SCHOOL", "type": "ELEMENTARY SCHOOL", "dlat": 37.436989 }, "geometry": { "type": "Point", "coordinates": [ -122.212158249667908, 37.436989487621361, 0.0 ] } },
{ "type": "Feature", "properties": { "zip": 94028, "address": "4575 Alpine Road.\nPORTOLA VALLEY, CA 94028", "dlon": -122.211543, "id": 192, "name": "CORTE MADERA MIDDLE SCHOOL", "type": "MIDDLE SCHOOL", "dlat": 37.369324 }, "geometry": { "type": "Point", "coordinates": [ -122.211543375313823, 37.369323791853013, 0.0 ] } },
{ "type": "Feature", "properties": { "zip": 94060, "address": "350 Butano Cutoff\nPESCADERO UNINC, CA 94060", "dlon": -122.364119, "id": 193, "name": "PESCADERO CONTINUATION HIGH", "type": "HIGH SCHOOL", "dlat": 37.246912 }, "geometry": { "type": "Point", "coordinates": [ -122.364119392136786, 37.246911907268121, 0.0 ] } },
{ "type": "Feature", "properties": { "zip": 94027, "address": "1000 El Camino Real\nATHERTON, CA 94027", "dlon": -122.190865, "id": 194, "name": "MENLO COLLEGE", "type": "COLLEGE", "dlat": 37.457362 }, "geometry": { "type": "Point", "coordinates": [ -122.190865116874107, 37.457361911042, 0.0 ] } },
{ "type": "Feature", "properties": { "zip": 94002, "address": "1540 Ralston Ave.\nBELMONT, CA 94002", "dlon": -122.285654, "id": 195, "name": "NOTRE DAME HIGH SCHOOL", "type": "HIGH SCHOOL", "dlat": 37.514660 }, "geometry": { "type": "Point", "coordinates": [ -122.285653709822284, 37.514659803947595, 0.0 ] } },
{ "type": "Feature", "properties": { "zip": 94010, "address": "6565 Skyline Boulevard\nHILLSBOROUGH, CA 94010", "dlon": -122.383226, "id": 196, "name": "tHE NUEVA SCHOOL", "type": "K-8 SCHOOL", "dlat": 37.561040 }, "geometry": { "type": "Point", "coordinates": [ -122.383225626677074, 37.561039596591336, 0.0 ] } },
{ "type": "Feature", "properties": { "zip": 94303, "address": "2695 Fordham St.\nEAST PALO ALTO, CA 94303", "dlon": -122.136890, "id": 197, "name": "COSTANO ELEMENTARY SCHOOL", "type": "K-8 SCHOOL", "dlat": 37.478371 }, "geometry": { "type": "Point", "coordinates": [ -122.13688954478711, 37.478371082366763, 0.0 ] } },
{ "type": "Feature", "properties": { "zip": 94303, "address": "2695 Fordham St.\nEAST PALO ALTO, CA 94303", "dlon": -122.136890, "id": 198, "name": "FORTY-NINERS ACADEMY SCHOOL", "type": "INTERMEDIATE SCHOOL", "dlat": 37.478371 }, "geometry": { "type": "Point", "coordinates": [ -122.13688954478711, 37.478371082366763, 0.0 ] } },
{ "type": "Feature", "properties": { "zip": 94065, "address": "801 Redwood Shores Pkwy.\nREDWOOD CITY, CA 94065", "dlon": -122.234882, "id": 199, "name": "SANDPIPER ELEMENTARY SCHOOL", "type": "ELEMENTARY SCHOOL", "dlat": 37.537780 }, "geometry": { "type": "Point", "coordinates": [ -122.234881725871162, 37.537779691828192, 0.0 ] } },
{ "type": "Feature", "properties": { "zip": 94080, "address": "600 grand Ave.\nSOUTH SAN FRANCISCO, CA 94080", "dlon": -122.419580, "id": 200, "name": "ROGER WILLIAMS ACADEMY", "type": "RELIGIOUS SCHOOL", "dlat": 37.657323 }, "geometry": { "type": "Point", "coordinates": [ -122.419579689843914, 37.657322604244996, 0.0 ] } },
{ "type": "Feature", "properties": { "zip": 94080, "address": "501 Spruce Ave.\nSOUTH SAN FRANCISCO, CA 94080", "dlon": -122.415406, "id": 201, "name": "SPRUCE ELEMENTARY SCHOOL", "type": "ELEMENTARY SCHOOL", "dlat": 37.658380 }, "geometry": { "type": "Point", "coordinates": [ -122.415406479953276, 37.658379841248433, 0.0 ] } },
{ "type": "Feature", "properties": { "zip": 94019, "address": "750 Avenue Alhambra.\nHALF MOON BAY, CA 94019", "dlon": -122.472730, "id": 202, "name": "WILKINSON SCHOOL", "type": "K-8 SCHOOL", "dlat": 37.503022 }, "geometry": { "type": "Point", "coordinates": [ -122.472729673353868, 37.503021639163663, 0.0 ] } },
{ "type": "Feature", "properties": { "zip": 94070, "address": "880 Tamarack Ave.\nSAN CARLOS, CA 94070", "dlon": -122.265953, "id": 203, "name": "SAINT CHARLES SCHOOL", "type": "ELEMENTARY SCHOOL", "dlat": 37.495465 }, "geometry": { "type": "Point", "coordinates": [ -122.265952531849095, 37.495465334939155, 0.0 ] } },
{ "type": "Feature", "properties": { "zip": 94019, "address": "600 Church St.\nHALF MOON BAY, CA 94019", "dlon": -122.431305, "id": 204, "name": "CUNHA INTERMEDIATE SCHOOL", "type": "INTERMEDIATE SCHOOL", "dlat": 37.462753 }, "geometry": { "type": "Point", "coordinates": [ -122.431305193533333, 37.462753292371019, 0.0 ] } },
{ "type": "Feature", "properties": { "zip": 94061, "address": "4200 Farm Hill Blvd.\nREDWOOD CITY, CA 94061", "dlon": -122.260381, "id": 205, "name": "CAADA COLLEGE", "type": "COLLEGE", "dlat": 37.447435 }, "geometry": { "type": "Point", "coordinates": [ -122.26038143198528, 37.447434935572055, 0.0 ] } },
{ "type": "Feature", "properties": { "zip": 94070, "address": "750 Dartmouth Ave.\nSAN CARLOS, CA 94070", "dlon": -122.285081, "id": 206, "name": "TERRA LINDA MIDDLE SCHOOL", "type": "5-8 SCHOOL", "dlat": 37.507894 }, "geometry": { "type": "Point", "coordinates": [ -122.285081350933922, 37.507893877382344, 0.0 ] } },
{ "type": "Feature", "properties": { "zip": 94080, "address": "116 Romney Ave.\nSOUTH SAN FRANCISCO, CA 94080", "dlon": -122.450650, "id": 207, "name": "ALTA LOMA MIDDLE SCHOOL", "type": "MIDDLE SCHOOL", "dlat": 37.660603 }, "geometry": { "type": "Point", "coordinates": [ -122.450649888560704, 37.66060296310971, 0.0 ] } },
{ "type": "Feature", "properties": { "zip": 94025, "address": "1100 Elder Ave.\nMENLO PARK, CA 94025", "dlon": -122.195445, "id": 208, "name": "HILLVIEW MIDDLE SCHOOL", "type": "MIDDLE SCHOOL", "dlat": 37.438575 }, "geometry": { "type": "Point", "coordinates": [ -122.195444996788822, 37.438574625425474, 0.0 ] } },
{ "type": "Feature", "properties": { "zip": 94019, "address": "Lewis Foster Dr.\nHalf Moon Bay, CA 94019", "dlon": -122.431973, "id": 209, "name": "HALF MOON BAY HIGH SCHOOL", "type": "HIGH SCHOOL", "dlat": 37.469627 }, "geometry": { "type": "Point", "coordinates": [ -122.431972807977758, 37.469626780038112, 0.0 ] } },
{ "type": "Feature", "properties": { "zip": 94080, "address": "479 Miller Ave.\nSOUTH SAN FRANCISCO, CA 94080", "dlon": -122.415075, "id": 210, "name": "ALL SOULS SCHOOL", "type": "RELIGIOUS SCHOOL K-8", "dlat": 37.657260 }, "geometry": { "type": "Point", "coordinates": [ -122.415075416635091, 37.657260137259861, 0.0 ] } },
{ "type": "Feature", "properties": { "zip": 94002, "address": "2820 Ponce Ave.\nBELMONT, CA 94002", "dlon": -122.303813, "id": 211, "name": "SERENDIPITY ELEMENTARY SCHOOL", "type": "ELEMENTARY SCHOOL", "dlat": 37.514789 }, "geometry": { "type": "Point", "coordinates": [ -122.303813273664986, 37.514788791658887, 0.0 ] } },
{ "type": "Feature", "properties": { "zip": 94401, "address": "446 Turner Terr.\nSAN MATEO, CA 94401", "dlon": -122.334343, "id": 212, "name": "RUSSELL BEDE SCHOOL", "type": "ELEMENTARY SCHOOL", "dlat": 37.572089 }, "geometry": { "type": "Point", "coordinates": [ -122.334342612020592, 37.572088506852964, 0.0 ] } },
{ "type": "Feature", "properties": { "zip": 94005, "address": "500 San Bruno Ave.\nBRISBANE, CA 94005", "dlon": -122.399139, "id": 213, "name": "BRISBANE ELEMENTARY SCHOOL", "type": "ELEMENTARY SCHOOL", "dlat": 37.680884 }, "geometry": { "type": "Point", "coordinates": [ -122.399138510282441, 37.680883691111504, 0.0 ] } },
{ "type": "Feature", "properties": { "zip": 94063, "address": "2950 Fair Oaks Ave.\nREDWOOD CITY, CA 94063", "dlon": -122.204765, "id": 214, "name": "FAIR OAKS ELEMENTARY SCHOOL", "type": "ELEMENTARY SCHOOL", "dlat": 37.479538 }, "geometry": { "type": "Point", "coordinates": [ -122.204764979234028, 37.47953760225213, 0.0 ] } },
{ "type": "Feature", "properties": { "zip": 94063, "address": "909 Roosevelt Ave.\nREDWOOD CITY, CA 94063", "dlon": -122.232835, "id": 215, "name": "HAWES ELEMENTARY SCHOOL", "type": "ELEMENTARY SCHOOL", "dlat": 37.473268 }, "geometry": { "type": "Point", "coordinates": [ -122.232835355569108, 37.47326829811611, 0.0 ] } },
{ "type": "Feature", "properties": { "zip": 94025, "address": "3600 Middlefield Rd.\nMENLO PARK, CA 94025", "dlon": -122.199405, "id": 216, "name": "GARFIELD ELEMENTARY CHARTER SCHOOL", "type": "K-8 SCHOOL", "dlat": 37.470083 }, "geometry": { "type": "Point", "coordinates": [ -122.199404601677941, 37.470083279149378, 0.0 ] } },
{ "type": "Feature", "properties": { "zip": 94027, "address": "150 Valparaiso Avenue\nATHERTON, CA 94027", "dlon": -122.193450, "id": 217, "name": "SAINT JOSEPHS ELEMENTARY SCHOOL", "type": "ELEMENTARY SCHOOL", "dlat": 37.448997 }, "geometry": { "type": "Point", "coordinates": [ -122.193449903221506, 37.448997418698816, 0.0 ] } },
{ "type": "Feature", "properties": { "zip": 94025, "address": "1211 Arbor Rd.\nMENLO PARK, CA 94025", "dlon": -122.190061, "id": 218, "name": "SAINT RAYMOND ELEMENTARY SCHOOL", "type": "ELEMENTARY SCHOOL", "dlat": 37.447953 }, "geometry": { "type": "Point", "coordinates": [ -122.190061143559447, 37.447953229420079, 0.0 ] } },
{ "type": "Feature", "properties": { "zip": 94062, "address": "2223 Vera Ave.\nREDWOOD CITY, CA 94062", "dlon": -122.244735, "id": 219, "name": "ROOSEVELT ELEMENTARY SCHOOL", "type": "K-6 SCHOOL", "dlat": 37.466860 }, "geometry": { "type": "Point", "coordinates": [ -122.244734729080093, 37.466859760213616, 0.0 ] } },
{ "type": "Feature", "properties": { "zip": 94019, "address": "490 Miramontes Ave.\nHALF MOON BAY, CA 94019", "dlon": -122.436213, "id": 220, "name": "ALVIN S. HATCH ELEMENTARY SCHOOL", "type": "ELEMENTARY SCHOOL", "dlat": 37.463223 }, "geometry": { "type": "Point", "coordinates": [ -122.436213415769203, 37.463223136499757, 0.0 ] } },
{ "type": "Feature", "properties": { "zip": 94027, "address": "95 Edge Rd.\nATHERTON, CA 94027", "dlon": -122.171032, "id": 221, "name": "LAUREL ELEMENTARY SCHOOL", "type": "ELEMENTARY SCHOOL", "dlat": 37.465927 }, "geometry": { "type": "Point", "coordinates": [ -122.171031990758749, 37.465926670805352, 0.0 ] } },
{ "type": "Feature", "properties": { "zip": 94025, "address": "620 Willow Rd.\nMENLO PARK, CA 94025", "dlon": -122.158793, "id": 222, "name": "WILLOW OAKS ELEMENTARY SCHOOL", "type": "ELEMENTARY SCHOOL", "dlat": 37.462813 }, "geometry": { "type": "Point", "coordinates": [ -122.158793150190107, 37.462813118985231, 0.0 ] } },
{ "type": "Feature", "properties": { "zip": 94025, "address": "1895 Oak Knoll Ln.\nMENLO PARK, CA 94025", "dlon": -122.192544, "id": 223, "name": "OAK KNOLL ELEMENTARY SCHOOL", "type": "ELEMENTARY SCHOOL", "dlat": 37.430839 }, "geometry": { "type": "Point", "coordinates": [ -122.19254357765999, 37.430838819708143, 0.0 ] } },
{ "type": "Feature", "properties": { "zip": 94028, "address": "200 Shawnee Pass\nPORTOLA VALLEY, CA 94028", "dlon": -122.218035, "id": 224, "name": "ORMONDALE ELEMENTARY SCHOOL", "type": "ELEMENTARY SCHOOL", "dlat": 37.381733 }, "geometry": { "type": "Point", "coordinates": [ -122.218034704863115, 37.381733354236339, 0.0 ] } },
{ "type": "Feature", "properties": { "zip": 94020, "address": "450 Sears Ranch Road\nLA HONDA UNINC, CA 94020", "dlon": -122.279465, "id": 225, "name": "LA HONDA ELEMENTARY SCHOOL", "type": "ELEMENTARY SCHOOL", "dlat": 37.324705 }, "geometry": { "type": "Point", "coordinates": [ -122.279465037963533, 37.324705382846169, 0.0 ] } },
{ "type": "Feature", "properties": { "zip": 94060, "address": "620 North St.\nPESCADERO UNINC, CA 94060", "dlon": -122.375218, "id": 226, "name": "PESCADERO ELEMENTARY AND MIDDLE SCHOOL", "type": "K-8 SCHOOL", "dlat": 37.256900 }, "geometry": { "type": "Point", "coordinates": [ -122.375218435899896, 37.256899673426581, 0.0 ] } },
{ "type": "Feature", "properties": { "zip": 94060, "address": "350 Butano Cutoff\nPESCADERO UNINC, CA 94060", "dlon": -122.364119, "id": 227, "name": "PESCADERO HIGH SCHOOL", "type": "HIGH SCHOOL", "dlat": 37.246912 }, "geometry": { "type": "Point", "coordinates": [ -122.364119392136786, 37.246911907268121, 0.0 ] } },
{ "type": "Feature", "properties": { "zip": 94015, "address": "208 Garden Ln.\nCOLMA, CA 94015", "dlon": -122.476899, "id": 228, "name": "GARDEN VILLAGE ELEMENTARY SCHOOL", "type": "ELEMENTARY SCHOOL", "dlat": 37.694351 }, "geometry": { "type": "Point", "coordinates": [ -122.476898608162088, 37.694351338821789, 0.0 ] } },
{ "type": "Feature", "properties": { "zip": 94030, "address": "401 Ludeman Ln.\nMILLBRAE, CA 94030", "dlon": -122.405269, "id": 229, "name": "GREEN HILLS ELEMENTARY SCHOOL", "type": "ELEMENTARY SCHOOL", "dlat": 37.605612 }, "geometry": { "type": "Point", "coordinates": [ -122.405268778172939, 37.605611994633037, 0.0 ] } },
{ "type": "Feature", "properties": { "zip": 94062, "address": "3195 Woodside Rd.\nWOODSIDE, CA 94062", "dlon": -122.259283, "id": 230, "name": "WOODSIDE ELEMENTARY SCHOOL", "type": "K-8 SCHOOL", "dlat": 37.428082 }, "geometry": { "type": "Point", "coordinates": [ -122.25928320741447, 37.428081956281233, 0.0 ] } },
{ "type": "Feature", "properties": { "zip": 94063, "address": "1968 Old Country Rd.\nRedwood, CA 94063", "dlon": -122.243018, "id": 231, "name": "REDWOOD HIGH SCHOOL", "type": "HIGH SCHOOL", "dlat": 37.493333 }, "geometry": { "type": "Point", "coordinates": [ -122.24301837735554, 37.493333258382542, 0.0 ] } },
{ "type": "Feature", "properties": { "zip": 94062, "address": "211 Swett Road\nWOODSIDE, CA 94062", "dlon": -122.322354, "id": 232, "name": "KINGS MOUNTAIN ELEMENTARY SCHOOL", "type": "ELEMENTARY SCHOOL", "dlat": 37.418449 }, "geometry": { "type": "Point", "coordinates": [ -122.322353689052221, 37.418448534006146, 0.0 ] } },
{ "type": "Feature", "properties": { "zip": 94028, "address": "360 La Cuesta Dr.\nPORTOLAVALLEY, CA 94028", "dlon": -122.196446, "id": 233, "name": "WOODLAND ELEMENTARY SCHOOL", "type": "K-8 SCHOOL", "dlat": 37.402050 }, "geometry": { "type": "Point", "coordinates": [ -122.196445906864909, 37.402050056138549, 0.0 ] } },
{ "type": "Feature", "properties": { "zip": 94027, "address": "170 Selby Ln.\nATHERTON, CA 94027", "dlon": -122.219006, "id": 234, "name": "SELBY LANE ELEMENTARY SCHOOL", "type": "K-8 SCHOOL", "dlat": 37.458218 }, "geometry": { "type": "Point", "coordinates": [ -122.219005666904266, 37.45821844628189, 0.0 ] } },
{ "type": "Feature", "properties": { "zip": 94066, "address": "300 Amador Ave.\nSAN BRUNO, CA 94066", "dlon": -122.452514, "id": 235, "name": "PORTOLA ELEMENTARY SCHOOL", "type": "K-6 SCHOOL", "dlat": 37.624038 }, "geometry": { "type": "Point", "coordinates": [ -122.452513800248781, 37.624037700741219, 0.0 ] } },
{ "type": "Feature", "properties": { "zip": 94062, "address": "555 Avenue del Ora\nREDWOOD CITY, CA 94062", "dlon": -122.241643, "id": 236, "name": "JOHN GILL ELEMENTARY SCHOOL", "type": "ELEMENTARY SCHOOL", "dlat": 37.473779 }, "geometry": { "type": "Point", "coordinates": [ -122.241643047672397, 37.47377926579739, 0.0 ] } },
{ "type": "Feature", "properties": { "zip": 94005, "address": "1 Solano St.\nBRISBANE, CA 94005", "dlon": -122.404956, "id": 237, "name": "LIPMAN MIDDLE SCHOOL", "type": "MIDDLE SCHOOL", "dlat": 37.685274 }, "geometry": { "type": "Point", "coordinates": [ -122.40495556527776, 37.685274295584897, 0.0 ] } },
{ "type": "Feature", "properties": { "zip": 94030, "address": "400 Murchison Dr.\nMILLBRAE, CA 94030", "dlon": -122.388674, "id": 238, "name": "MILLS HIGH SCHOOL", "type": "HIGH SCHOOL", "dlat": 37.593589 }, "geometry": { "type": "Point", "coordinates": [ -122.388674494576804, 37.593588797922187, 0.0 ] } }
]
}
